BUILDING	STATUS	DESCRIPTION	HISTORICAL_ALIAS	ADDRESS_3	SITE	LONGITUDE	MSAG_ALIAS	HISTORICAL_NAME	ADDRESS_1	ADDRESS_2	BUILDING_ABBR	LATITUDE	ADDR1_ALIAS	USAGE_DESCRIPTION
3600	OPEN	YALE BOWL	[]	6511	ATH	-72.960451	"CENTRAL AVE, 81"	[]	"CENTRAL AVENUE, 81"	"NEW HAVEN, CT"	YALEBOWL	41.313091	81 CENTRAL AVENUE	ATHLETICS
3742	OPEN	JOHNSON FIELD	[]	6515	ATH	-72.967369	"CENTRAL AVE, 70"	[]	"CENTRAL AVENUE, 70"	"NEW HAVEN, CT"	JOHN-FD	41.312225	70 CENTRAL AVENUE	ATHLETICS
350	OPEN	"WHITNEY AVE, 389"	[]	6511	CEN	-72.918045	"WHITNEY AVE, 389"	[]	"WHITNEY AVENUE, 389"	"NEW HAVEN, CT"	WHIT389	41.321286	389 WHITNEY AVENUE	ACADEMIC
502	OPEN	"PROSPECT ST,406"	"INT'L CTR; WILBUR F DAY HSE, DEAN BURTON B. TWITCHELL HSE"	6511	CEN	-72.923755	"PROSPECT ST, 406"	[]	"PROSPECT STREET, 406"	"NEW HAVEN, CT"	PROS406	41.323139	406 PROSPECT STREET	ACADEMIC
645	OPEN	CEN CAMPUS CHILLER PLT	SCIENCE AREA CHILLER PLANT	6511	CEN	-72.929666	"WINCHESTER AVE, 330"	[]	"WINCHESTER AVENUE, 330"	"NEW HAVEN, CT"	CCCP	41.323174	330 WINCHESTER AVENUE	OPERATIONS
1000	OPEN	"PROSPECT ST,301"	PIERCE N WELCH HSE	6511	CEN	-72.922811	"PROSPECT ST, 301"	Pierce N. Welch Hs	"PROSPECT STREET, 301"	"NEW HAVEN, CT"	PROS301	41.319906	301 PROSPECT STREET	ACADEMIC
1105	OPEN	"SACHEM ST, 36"	[]	6511	CEN	-72.921899	"SACHEM ST, 36"	[]	"SACHEM STREET, 36"	"NEW HAVEN, CT"	SACH036	41.315487	36 SACHEM STREET	ACADEMIC
1140	OPEN	"HILLHOUSE AVE,43"	[]	6511	CEN	-72.922714	"HILLHOUSE AVE, 43"	Henry Farnam Hs	"HILLHOUSE AVENUE, 43"	"NEW HAVEN, CT"	HLH43	41.314727	43 HILLHOUSE AVENUE	HOUSING
1210	OPEN	"EVANS HALL, THOMAS M."	ELIZABETH APTHORP HOUSE	6511	CEN	-72.923332	"HILLHOUSE AVE, 56"	Elizabeth Apthorp Hs	"HILLHOUSE AVENUE, 56"	"NEW HAVEN, CT"	EVN	41.315689	56 HILLHOUSE AVENUE	ACADEMIC
1291	OPEN	HLH46 SHED	[]	6511	CEN	-72.924146	"PROSPECT ST, 131"	[]	"PROSPECT STREET, 131"	"NEW HAVEN, CT"	HL46SHED	41.315401	131 PROSPECT STREET	OPERATIONS
1500	OPEN	"HILLHOUSE AVE,24"	JAMES DWIGHT DANA HOUSE	6511	CEN	-72.924139	"HILLHOUSE AVE, 24"	James Dwight Dana Hs	"HILLHOUSE AVENUE, 24"	"NEW HAVEN, CT"	HLH24	41.313434	24 HILLHOUSE AVENUE	ACADEMIC
3831	OPEN	OEC - MAINTENANCE BLDG	[]	6333	CT	[]	"UPPER PATTAGANSETT RD, 291"	[]	"UPPER PATTAGANSETT RD,291"	"EAST LYME, CT"	OEC-MB	[]	291 UPPER PATTAGANSETT RD	ATHLETICS
3836	OPEN	OEC - CABINS 1 & 2	[]	6333	CT	[]	"UPPER PATTAGANSETT RD, 291"	[]	"UPPER PATTAGANSETT RD,291"	"EAST LYME, CT"	OEC-C1+2	[]	291 UPPER PATTAGANSETT RD	ATHLETICS
3839	OPEN	OEC - CABIN 7	[]	6333	CT	[]	"UPPER PATTAGANSETT RD, 291"	[]	"UPPER PATTAGANSETT RD,291"	"EAST LYME, CT"	OEC-C7	[]	291 UPPER PATTAGANSETT RD	ATHLETICS
3842	OPEN	OEC-GROUP CAMP SHELTER	[]	6333	CT	[]	"UPPER PATTAGANSETT RD, 291"	[]	"UPPER PATTAGANSETT RD,291"	"EAST LYME, CT"	OEC-GCS	[]	291 UPPER PATTAGANSETT RD	ATHLETICS
1720	OPEN	"TEMPLE ST, 405"	[]	6511	CEN	-72.922906	"TEMPLE ST, 405"	[]	"TEMPLE STREET, 405"	"NEW HAVEN, CT"	TEMP405	41.31201	405 TEMPLE STREET	ACADEMIC
1940	OPEN	"ELM ST, 149"	JOHN PIERPONT HOUSE	6511	CEN	-72.925639	"ELM ST, 149"	John Pierpoint Hs	"ELM STREET, 149"	"NEW HAVEN, CT"	ELM149	41.309182	149 ELM STREET	ADMIN
2010	OPEN	SCHWARZMAN CENTER	UNIVERSITY COMMONS	6511	CEN	-72.926478	"GROVE ST, 168"	[]	"GROVE STREET, 168"	"NEW HAVEN, CT"	SC	41.311803	168 GROVE STREET	DINING
2420	OPEN	DAVENPORT COLLEGE	[]	6511	CEN	-72.931252	"YORK ST, 248"	[]	"YORK STREET, 248"	"NEW HAVEN, CT"	DC	41.310418	248 YORK STREET	DORMITORY
2510	OPEN	JONATHAN EDWARDS COL	[]	6511	CEN	-72.930527	"HIGH ST, 68"	Edward M  Bradley Hs	"HIGH STREET, 68"	"NEW HAVEN, CT"	JE	41.309104	68 HIGH STREET	DORMITORY
4004	OPEN	LINSLEY POND SHED	[]	6471	CT	[]	"TWIN LAKES RD, 159"	[]	"TWIN LAKES ROAD, 159"	"NORTH BRANFORD, CT"	LINSHED	[]	159 TWIN LAKES ROAD	ACADEMIC
4008	OPEN	LIDYHITES POND	LYDYHITES POND	6405	CT	[]	"BRANFORD, CT"	[]	BRUSHY PLAIN ROAD	"BRANFORD, CT"	LIDPOND	[]	BRUSHY PLAIN ROAD	ACADEMIC
4016	OPEN	YALE-MYERS FOR BATH HSE	[]	6242	CT	[]	"CENTER PIKE, 150"	[]	"CENTER PIKE, 150"	"EASTFORD, CT"	YMF-BH	[]	150 CENTER PIKE	ACADEMIC
4022	OPEN	AMITY AN FARM BLDG A	[]	6524	CT	-72.999511	"OLD AMITY RD, 48"	[]	"OLD AMITY ROAD, 48"	"BETHANY, CT"	AARFA	41.402139	48 OLD AMITY ROAD	ACADEMIC
4043	OPEN	GREAT MTN FOR CABIN 3	[]	6031	CT	[]	"CHATTLETON RD, 209"	[]	"CHATTLETON ROAD, 209"	"CANAAN, CT"	GM-C3	[]	209 CHATTLETON ROAD	ACADEMIC
4052	OPEN	YALE-MYERS FOREST	[]	6242	CT	[]	"CENTER PIKE, 150"	[]	"CENTER PIKE, 150"	"EASTFORD, CT"	YMF	[]	150 CENTER PIKE	ACADEMIC
4057	OPEN	YALE-MYERS FOR RES LAB	[]	6242	CT	[]	"CENTER PIKE, 150"	[]	"CENTER PIKE, 150"	"EASTFORD, CT"	YMF-RL	[]	150 CENTER PIKE	ACADEMIC
2040	OPEN	BERKELEY COLLEGE	[]	6511	CEN	-72.928105	"ELM ST, 205"	[]	"ELM STREET, 205"	"NEW HAVEN, CT"	BK	41.310305	205 ELM STREET	DORMITORY
2425	OPEN	PIERSON COLLEGE	[]	6511	CEN	-72.932166	"PARK ST, 261"	[]	"PARK STREET, 261"	"NEW HAVEN, CT"	PC	41.310049	261 PARK STREET	DORMITORY
2430	OPEN	ROSE ALUMNI HOUSE	DELTA KAPPA EPSILON	6511	CEN	-72.931056	"YORK ST, 232"	Delta Kappa Epsilon	"YORK STREET, 232"	"NEW HAVEN, CT"	RAH	41.309894	232 YORK STREET	ADMIN
2435	OPEN	UNIVERSITY THEATRE	[]	6511	CEN	-72.931255	"YORK ST, 222"	[]	"YORK STREET, 222"	"NEW HAVEN, CT"	UT	41.309701	222 YORK STREET	ASSEMBLY
2437	OPEN	LOT  84 -UNIV THEAT S	[]	6511	CEN	-72.931865	"YORK ST, 222"	[]	"YORK STREET, 222"	"NEW HAVEN, CT"	LOT 84	41.309698	222 YORK STREET	PARKING
2440	OPEN	"YORK ST, 220"	FENCE CLUB	6511	CEN	-72.931865	"YORK ST, 220"	Fence Club	"YORK STREET, 220"	"NEW HAVEN, CT"	YORK220	41.309698	220 YORK STREET	ACADEMIC
2445	OPEN	"YORK ST, 212"	ZETA PSI	6511	CEN	-72.932049	"YORK ST, 212"	Zeta Psi;	"YORK STREET, 212"	"NEW HAVEN, CT"	YORK212	41.309502	212 YORK STREET	ACADEMIC
2450	OPEN	"YORK ST, 202"	[]	6511	CEN	-72.931495	"YORK ST, 202"	Briton Hadden Memorial Bdg	"YORK STREET, 202"	"NEW HAVEN, CT"	YORK202	41.309127	202 YORK STREET	ACADEMIC
2455	OPEN	GRAD-PRO STUDENT CTR	BETA THETA PI	6511	CEN	-72.931908	"YORK ST, 204"	Beta Theta Pi	"YORK STREET, 204"	"NEW HAVEN, CT"	GPSCY	41.309298	204 YORK STREET	ADMIN
2469	OPEN	LORIA CENTER	[]	6511	CEN	-72.931669	"YORK ST, 190"	[]	"YORK STREET, 190"	"NEW HAVEN, CT"	LORIA	41.308994	190 YORK STREET	ACADEMIC
4063	OPEN	"CLARK AVE, 158"	[]	6405	CT	[]	"CLARK AVE, 158"	[]	"CLARK AVENUE, 158"	"BRANFORD, CT"	CLRK158	[]	158 CLARK AVENUE	ATHLETICS
4065	OPEN	"HIGHLAND AVE, 27"	[]	6405	CT	[]	"HIGHLAND AVE, 27"	[]	"HIGHLAND AVENUE, 27"	"BRANFORD, CT"	HLAND27	[]	27 HIGHLAND AVENUE	ATHLETICS
2610	OPEN	BATTELL CHAPEL	[]	6511	CEN	-72.927515	"COLLEGE ST, 400"	[]	"COLLEGE STREET, 400"	"NEW HAVEN, CT"	BATTELL	41.309372	400 COLLEGE STREET	ASSEMBLY
2640	OPEN	CONNECTICUT HALL	SOUTH MIDDLE COLLEGE	6510	CEN	-72.928888	"CHAPEL ST, 1017"	South Middle College	"CHAPEL STREET, 1017"	"NEW HAVEN, CT"	C	41.308085	1017 CHAPEL STREET	ACADEMIC
2705	OPEN	"BRITISH ART, YALE CTR"	[]	6510	CEN	-72.930972	"CHAPEL ST, 1080"	Yale Center for British Art	"CHAPEL STREET, 1080"	"NEW HAVEN, CT"	YCBA	41.307776	1080 CHAPEL STREET	LIBRARY
2707	OPEN	SHERMAN BLDG	UNION LEAGUE CLUB	6510	CEN	-72.929609	"CHAPEL ST, 1032"	[]	"CHAPEL STREET, 1032"	"NEW HAVEN, CT"	SHERMAN	41.307463	1032 CHAPEL STREET	REAL ESTATE
2715	OPEN	"HIGH ST,  26"	[]	6510	CEN	-72.931202	"HIGH ST, 26"	[]	"HIGH STREET, 26"	"NEW HAVEN, CT"	HIGH026	41.307043	26 HIGH STREET	ADMIN
2720	OPEN	"CROWN ST, 295-297"	[]	6511	CEN	-72.931596	"CROWN ST, 295"	[]	"CROWN STREET, 295-297"	"NEW HAVEN, CT"	CRWN295	41.306992	295-297 CROWN STREET	ADMIN
2721	OPEN	"HIGH ST, 32"	[]	6510	CEN	-72.930996	"HIGH ST, 32"	[]	"HIGH STREET, 32"	"NEW HAVEN, CT"	HIGH032	41.307133	32 HIGH STREET	RESIDENTIAL
2723	OPEN	YUAG ADMIN BUILDING	[]	6510	CEN	[]	[]	[]	CHAPEL STREET	"NEW HAVEN, CT"	YUAGBLDG	[]	CHAPEL STREET	ACADEMIC
4066	OPEN	"HIGHLAND AVE, 27 GAR"	[]	6405	CT	[]	"HIGHLAND AVE, 27"	[]	"HIGHLAND AVENUE, 27"	"BRANFORD, CT"	HLAND27G	[]	27 HIGHLAND AVENUE	ATHLETICS
4099	OPEN	"HURLBUTT RD, 68"	[]	6335	CT	[]	"HURLBUTT RD, 68"	[]	"HURLBUTT ROAD, 68"	"GALES FERRY, CT"	HURL68	[]	68 HURLBUTT ROAD	ATHLETICS
4100	OPEN	GALES FERRY HOUSE	[]	6335	CT	[]	"RIVERSIDE PL, 4"	[]	"RIVERSIDE PLACE, 4"	"GALES FERRY, CT"	GALESHS	[]	4 RIVERSIDE PLACE	ATHLETICS
4102	OPEN	GALES FERRY VARS HSE	[]	6335	CT	[]	"RIVERSIDE PL, 4"	[]	"RIVERSIDE PLACE, 4"	"GALES FERRY, CT"	GALESVH	[]	4 RIVERSIDE PLACE	ATHLETICS
2725	OPEN	"CROWN ST, 301"	[]	6511	CEN	-72.931744	"CROWN ST, 301"	[]	"CROWN STREET, 301"	"NEW HAVEN, CT"	CRWN301	41.307075	301 CROWN STREET	ADMIN
2745	OPEN	"YORK ST, 149"	[]	6511	CEN	-72.93193	"YORK ST, 149"	[]	"YORK STREET, 149"	"NEW HAVEN, CT"	YORK149	41.30755	149 YORK STREET	ACADEMIC
2780	OPEN	"YORK ST, 150"	CHAPEL YORK PARKING GARAGE	6511	CEN	-72.932587	"YORK ST, 150"	[]	"YORK STREET, 150"	"NEW HAVEN, CT"	YORK150	41.307945	150 YORK STREET	PARKING
4118	OPEN	"KINGS HIGHWAY NORTH,125"	[]	6880	CT	[]	"KINGS HWY N, 125"	[]	"KINGS HIGHWAY NORTH, 125"	"WESTPORT, CT"	KHWYN125	[]	125 KINGS HIGHWAY NORTH	ACADEMIC
3825	OPEN	BETHANY OBSERVATORY	[]	6524	CT	[]	"HILLDALE RD, 111"	[]	"HILLDALE ROAD, 111"	"BETHANY, CT"	BETHOBSV	[]	111 HILLDALE ROAD	ACADEMIC
3380	OPEN	LAUDER HALL	[]	6510	MED	-72.934203	"CEDAR ST, 310"	[]	"CEDAR STREET, 310"	"NEW HAVEN, CT"	LH	41.3019	310 CEDAR STREET	ACADEMIC
3385	OPEN	FARNAM MEMORIAL BLDG	[]	6510	MED	-72.934762	"CEDAR ST, 310"	[]	"CEDAR STREET, 310"	"NEW HAVEN, CT"	FMB	41.302207	310 CEDAR STREET	ACADEMIC
3410	OPEN	LOT  47 -264 WASHINGTON	[]	6519	MED	-72.934065	"WASHINGTON AVE, 264"	[]	"WASHINGTON AVENUE, 264"	"NEW HAVEN, CT"	LOT 47	41.299596	264 WASHINGTON AVENUE	PARKING
3520	OPEN	SEAMCO BLDG	[]	6519	MED	-72.936067	"CONGRESS AVE, 464"	[]	"CONGRESS AVENUE, 464"	"NEW HAVEN, CT"	SEAMCO	41.300766	464 CONGRESS AVENUE	ACADEMIC
3525	OPEN	"CONGRESS AVE, 500"	[]	6519	MED	[]	"CONGRESS AVE, 500"	[]	"CONGRESS AVENUE, 500"	"NEW HAVEN, CT"	CONG500	[]	500 CONGRESS AVENUE	ACADEMIC
3530	OPEN	"DAGGETT ST, 41"	[]	6519	MED	-72.935991	"DAGGETT ST, 41"	[]	"DAGGETT STREET, 41"	"NEW HAVEN, CT"	DAG41	41.299557	41 DAGGETT STREET	ACADEMIC
3534	OPEN	"DAGGETT ST, 55"	[]	6519	MED	-72.936349	"DAGGETT ST, 55"	[]	"DAGGETT STREET, 55"	"NEW HAVEN, CT"	DAG55	41.299906	55 DAGGETT STREET	ACADEMIC
3540	OPEN	"HOWARD AVE, 682-686"	[]	6519	MED	-72.935445	"HOWARD AVE, 682"	[]	"HOWARD AVENUE, 682-686"	"NEW HAVEN, CT"	HOWD682	41.299558	682-686 HOWARD AVE	OPERATIONS
3085	OPEN	"LONG WHARF DR, 1"	[]	6511	NH	-72.924408	"LONG WHARF DR, 1"	[]	"LONG WHARF DRIVE, 1"	"NEW HAVEN, CT"	LW001	41.28682	1 LONG WHARF DRIVE	ACADEMIC
3185	OPEN	"SARGENT DR, 150"	[]	6511	NH	-72.921713	"SARGENT DR, 150"	[]	"SARGENT DRIVE, 150"	"NEW HAVEN, CT"	SARG150	41.291899	150 SARGENT DRIVE	ACADEMIC
3902	OPEN	HAMILTON/IVES WAREHO	[]	6511	NH	-72.911586	"HAMILTON ST, 105"	[]	"HAMILTON STREET, 105"	"NEW HAVEN, CT"	HIW	41.306147	105 HAMILTON STREET	ACADEMIC
3912	OPEN	ERECTOR SQUARE	[]	6513	NH	-72.899994	"PECK ST, 315"	[]	"PECK STREET, 315"	"NEW HAVEN, CT"	ERECTOR	41.315757	315 PECK STREET	ACADEMIC
3913	OPEN	"STATE ST, 809"	[]	6511	NH	-72.914525	"STATE ST, 809"	[]	"STATE STREET, 809"	"NEW HAVEN, CT"	STAT809	41.312523	809 STATE STREET	RESIDENTIAL
3916	OPEN	"FOSTER ST, 157"	[]	6511	NH	-72.909441	"FOSTER ST, 157"	[]	"FOSTER STREET, 157"	"NEW HAVEN, CT"	FSTR157	41.320898	157 FOSTER STREET	RESIDENTIAL
3918	OPEN	"PEARL ST, 32"	[]	6511	NH	-72.915165	"PEARL ST, 32"	[]	"PEARL STREET, 32"	"NEW HAVEN, CT"	PERL032	41.313443	32 PEARL STREET	RESIDENTIAL
3920	OPEN	"STATE ST, 360"	[]	6510	NH	-72.923167	"STATE ST, 360"	[]	"STATE STREET, 360"	"NEW HAVEN, CT"	STAT360	41.305289	360 STATE STREET	RESIDENTIAL
3921	OPEN	"ORANGE ST, 531"	[]	6511	NH	[]	"ORANGE ST, 531"	[]	"ORANGE STREET, 531"	"NEW HAVEN, CT"	ORNG531	[]	531 ORANGE STREET	RESIDENTIAL
3922	OPEN	"SHERMAN AVE, 180"	[]	6511	NH	[]	"SHERMAN AVE, 180"	[]	"SHERMAN AVENUE, 180"	"NEW HAVEN, CT"	SHER180	[]	180 SHERMAN AVENUE	ACADEMIC
3923	OPEN	"WILLOW ST, 156"	[]	6511	NH	[]	"WILLOW ST, 156"	[]	"WILLOW STREET, 156"	"NEW HAVEN, CT"	WILL156	[]	156 WILLOW STREET	RESIDENTIAL
3924	OPEN	"HUMPHREY ST, 344"	[]	6511	NH	[]	"HUMPHREY ST, 344"	[]	"HUMPHREY STREET, 344"	"NEW HAVEN, CT"	HUMP344	[]	344 HUMPHREY STREET	RESIDENTIAL
3925	OPEN	"WHITNEY AVE, 496"	[]	6511	NH	[]	"WHITNEY AVE, 496"	[]	"WHITNEY AVENUE, 496"	"NEW HAVEN, CT"	WHIT496	[]	496 WHITNEY AVENUE	RESIDENTIAL
3926	OPEN	"LAWRENCE ST, 107"	[]	6511	NH	[]	"LAWRENCE ST, 107"	[]	"LAWRENCE STREET, 107"	"NEW HAVEN, CT"	LAWR107	[]	107 LAWRENCE STREET	RESIDENTIAL
3928	OPEN	"BISHOP ST, 92"	[]	6511	NH	[]	"BISHOP ST, 92"	[]	"BISHOP STREET, 92"	"NEW HAVEN, CT"	BISH92	[]	92 BISHOP STREET	RESIDENTIAL
4138	OPEN	"EAST 23RD ST, 220"	[]	10010	USA	[]	"EAST 23RD ST, 220"	[]	"EAST 23RD STREET, 220"	"NEW YORK, NY"	EST23220	[]	220 EAST 23RD STREET	ACADEMIC
4700	OPEN	YALE-TOUMEY FOREST	KEENE FOREST	3469	USA	[]	KEENE RD	[]	KEENE ROAD	"WEST SWANZEY, NH"	YTF	[]	KEENE ROAD	ACADEMIC
4701	OPEN	GOSS WOODS	[]	3470	USA	[]	ATTLEBORO MOUNTAIN RD	[]	ATTLEBORO MOUNTAIN ROAD	"RICHMOND, NH"	GOSS	[]	ATTLEBORO MOUNTAIN ROAD	ACADEMIC
4800	OPEN	BOWEN FOREST	[]	5758	USA	[]	"MT. HOLLY,"	[]	"MT. HOLLY,"	"MT. HOLLY, VT"	BOWEN	[]	MT. HOLLY	ACADEMIC
4801	OPEN	CROSS WOODS	[]	5089	USA	[]	"WEST WINDSOR,"	[]	"WEST WINDSOR,"	"WEST WINDSOR, VT"	CW	[]	WEST WINDSOR	ACADEMIC
4802	OPEN	CROWELL FOREST	[]	5301	USA	[]	"DUMMERSTON,"	[]	"DUMMERSTON,"	"DUMMERSTON, VT"	CF	[]	DUMMERSTON	ACADEMIC
4803	OPEN	CROWELL RAVINE FOREST	[]	5660	USA	[]	"SOUTH DUXBURY,"	[]	"SOUTH DUXBURY,"	"SOUTH DUXBURY, VT"	CRF	[]	SOUTH DUXBURY	ACADEMIC
4200	OPEN	WC WELCOME CENTER	WEST - D18 WELCOME CENTER	6477	WST	[]	"WEST CAMPUS DR, 100"	[]	"WEST CAMPUS DRIVE, 100"	"ORANGE, CT"	W-WC	[]	100 WEST CAMPUS DRIVE	OPERATIONS
4201	OPEN	WC-ORANGE LAND NO WO	LEAVE OPEN - % PURCHASE ALLOCATED TO THIS	6477	WST	[]	[]	[]	NOT APPLICABLE	"ORANGE, CT"	W-ORLND	[]	[]	[]
4202	OPEN	WC WAREHOUSE WEST	WEST - D37 STORAGE	6477	WST	[]	"WEST CAMPUS DR, 250"	[]	"WEST CAMPUS DRIVE, 250"	"ORANGE, CT"	W-WW	[]	250 WEST CAMPUS DRIVE	OPERATIONS
4203	OPEN	WC-LOT 200 (VISITORS)	WEST - LOT 200 VISITORS	6477	WST	[]	[]	[]	WEST CAMPUS	"ORANGE, CT"	W-LT 200	[]	[]	PARKING
4204	OPEN	WC GROUNDS MAINT GAR	WEST - E35 STORAGE	6477	WST	-72.997071	"WEST CAMPUS DR, 240"	[]	"WEST CAMPUS DRIVE, 240"	"ORANGE, CT"	W-GMG	41.252031	240 WEST CAMPUS DRIVE	OPERATIONS
4206	OPEN	WC CHILDCARE CENTER	WEST - E29 DAYCARE	6477	WST	-72.99797	"WEST CAMPUS DR, 230"	[]	"WEST CAMPUS DRIVE, 230"	"ORANGE, CT"	W-CHILD	41.252846	230 WEST CAMPUS DRIVE	ADMIN
4207	OPEN	WC-LOT 210 (DAYCARE)	WEST - LOT 210 DAYCARE	6477	WST	[]	[]	[]	WEST CAMPUS	"ORANGE, CT"	W-LT 210	[]	[]	PARKING
4208	OPEN	WC ADMIN OFFICE SOUTH	WEST - D21 ADMIN	6477	WST	-72.997766	"WEST CAMPUS DR, 220"	[]	"WEST CAMPUS DRIVE, 220"	"ORANGE, CT"	W-AOS	41.2533	220 WEST CAMPUS DRIVE	ADMIN
4210	OPEN	WC ADMIN OFFICE NORTH	WEST - D24 ADMIN	6477	WST	[]	"WEST CAMPUS DR, 200"	[]	"WEST CAMPUS DRIVE, 200"	"ORANGE, CT"	W-AON	[]	200 WEST CAMPUS DRIVE	ADMIN
4211	OPEN	WC-LOT 220(ADM OFF N&S)	WEST - LOT 220 D BUILDINGS	6477	WST	[]	[]	[]	WEST CAMPUS	"ORANGE, CT"	W-LT 220	[]	[]	PARKING
4212	OPEN	WC SUSTAIN GARDEN BARN	[]	6477	WST	[]	"WEST CAMPUS DR, 350"	[]	"WEST CAMPUS DRIVE, 350"	"ORANGE, CT"	W-SGB	[]	350 WEST CAMPUS DRIVE	ADMIN
4215	OPEN	WC OFFICE COMPLEX NORTH	WEST - C28 ADMIN	6477	WST	[]	"WEST CAMPUS DR, 400"	[]	"WEST CAMPUS DRIVE, 400"	"ORANGE, CT"	W-OCN	[]	400 WEST CAMPUS DRIVE	ACADEMIC
4216	OPEN	WC-LOT 230(OFF COMPLEX)	WEST - LOT 230 C BUILDINGS	6477	WST	[]	[]	[]	WEST CAMPUS	"ORANGE, CT"	W-LT 230	[]	[]	PARKING
4217	OPEN	WC OFFICE COMPLEX CONN	WEST - C27 ADMIN	6477	WST	[]	"WEST CAMPUS DR, 405"	[]	"WEST CAMPUS DRIVE, 405"	"ORANGE, CT"	W-OCCON	[]	405 WEST CAMPUS DRIVE	ADMIN
4220	OPEN	WC OFFICE COMPLEX SOUTH	WEST - C32 ADMIN	6516	WST	-72.99258	"W CAMPUS DR, 410"	[]	"WEST CAMPUS DRIVE, 410"	"WEST HAVEN, CT"	W-OCS	41.255192	410 WEST CAMPUS DRIVE	ADMIN
4225	OPEN	WC CONF CTR & WC ADM	WEST - B25 CENTRAL SERVICES	6516	WST	-72.989353	"W CAMPUS DR, 800"	[]	"WEST CAMPUS DRIVE, 800"	"WEST HAVEN, CT"	W-CC+WCA	41.258344	800 WEST CAMPUS DRIVE	ADMIN
4226	OPEN	WC-LOT 240(RESCH BLDGS)	WEST - LOT 240 B BUILDINGS	6516	WST	[]	[]	[]	WEST CAMPUS	"WEST HAVEN, CT"	W-LT 240	[]	[]	PARKING
4227	OPEN	WC GENOME ANALYSIS CTR	WEST - B36 RESEARCH	6516	WST	[]	"W CAMPUS DR, 830"	[]	"WEST CAMPUS DRIVE, 830"	"WEST HAVEN, CT"	W-GAC	[]	830 WEST CAMPUS DRIVE	ACADEMIC
4228	OPEN	WC-LOT 280(VIS HEFF DR)	WEST - LOT 280 VISITORS HEFFERNAN DRIVE	6516	WST	[]	[]	[]	WEST CAMPUS	"WEST HAVEN, CT"	W-LT 280	[]	[]	PARKING
4230	OPEN	WC POWER PLANT	WEST - B45 UTIL PLANT	6516	WST	-72.988228	"W CAMPUS DR, 700"	[]	"WEST CAMPUS DRIVE, 700"	"WEST HAVEN, CT"	W-PWRPL	41.256255	700 WEST CAMPUS DRIVE	OPERATIONS
4231	OPEN	WC-LOT 250(POWER PLANT)	WEST - LOT 250 UTILITY PLANT	6516	WST	[]	[]	[]	WEST CAMPUS	"WEST HAVEN, CT"	W-LT 250	[]	[]	PARKING
4235	OPEN	WC ADV BIOSCIENCES CTR	WEST - B31 RESEARCH	6516	WST	-72.989598	"W CAMPUS DR, 840"	[]	"WEST CAMPUS DRIVE, 840"	"WEST HAVEN, CT"	W-ABC	41.256898	840 WEST CAMPUS DRIVE	ACADEMIC
4237	OPEN	WC MOLECULAR INNOV CTR	WEST - B27 RESEARCH	6516	WST	-72.99082	"W CAMPUS DR, 600"	[]	"WEST CAMPUS DRIVE, 600"	"WEST HAVEN, CT"	W-MIC	41.256822	600 WEST CAMPUS DRIVE	ACADEMIC
4238	OPEN	WC REACTIONS RESCH LAB	WEST - C23 RESCH HYDROG	6516	WST	[]	"W CAMPUS DR, 500"	[]	"WEST CAMPUS DRIVE, 500"	"WEST HAVEN, CT"	W-RRL	[]	500 WEST CAMPUS DRIVE	ACADEMIC
4240	OPEN	WC INTEG SCI & TECH CTR	WEST - B24 RESEARCH	6516	WST	-72.990351	"W CAMPUS DR, 850"	[]	"WEST CAMPUS DRIVE, 850"	"WEST HAVEN, CT"	W-ISTC	41.257483	850 WEST CAMPUS DRIVE	ACADEMIC
4245	OPEN	WC ENERGY SCIENCE CTR	WEST - B22 RESEARCH	6516	WST	[]	"W CAMPUS DR, 520"	[]	"WEST CAMPUS DRIVE, 520"	"WEST HAVEN, CT"	W-ESC	[]	520 WEST CAMPUS DRIVE	ACADEMIC
4250	OPEN	WC COLLECTION ST CTR	WEST - A21 COLLECTIONS	6516	WST	-72.987395	"W CAMPUS DR, 900"	[]	"WEST CAMPUS DRIVE, 900"	"WEST HAVEN, CT"	W-CSC	41.259342	900 WEST CAMPUS DRIVE	LIBRARY
4251	OPEN	WC-LOT 270 (COLLECTNS)	WEST - LOT 270 MANUFACTURE	6516	WST	[]	[]	[]	WEST CAMPUS	"WEST HAVEN, CT"	W-LT 270	[]	[]	PARKING
4270	OPEN	WC STORAGE & RECEIV CTR	WEST - A42 WAREHOUSE	6516	WST	-72.985888	"W CAMPUS DR, 750"	[]	"WEST CAMPUS DRIVE, 750"	"WEST HAVEN, CT"	W-SRC	41.257826	750 WEST CAMPUS DRIVE	OPERATIONS
4272	OPEN	WC ENVIR HL & SFTY STOR	WEST - B46 WASTE	6516	WST	[]	"W CAMPUS DR, 720"	[]	"WEST CAMPUS DRIVE, 720"	"WEST HAVEN, CT"	W-EH+SST	[]	720 WEST CAMPUS DRIVE	OPERATIONS
4273	OPEN	WC-LOT 260 (STOR & REC)	WEST - LOT 260 WAREHOUSE	6516	WST	[]	[]	[]	WEST CAMPUS	"WEST HAVEN, CT"	W-LT 260	[]	[]	PARKING
4298	OPEN	WC-ENTIRE SITE	WEST CAMPUS ENTIRE SITE	6516	WST	-72.989308	[]	[]	WEST CAMPUS	"WEST HAVEN, CT"	W-SITE	41.257293	[]	[]
4299	OPEN	WC-W HAVEN LAND NO WO	LEAVE OPEN - % PURCHASE ALLOCATED TO THIS	6516	WST	[]	[]	[]	NOT APPLICABLE	"WEST HAVEN, CT"	W-WHLND	[]	[]	[]
3120	OPEN	M.S. HARKNESS MEM AUD	[]	6510	MED	-72.933816	"CEDAR ST, 333"	[]	"CEDAR STREET, 333"	"NEW HAVEN, CT"	MHMA	41.303418	333 CEDAR STREET	ACADEMIC
3125	OPEN	STERLING HALL MED I	[]	6510	MED	-72.933826	"CEDAR ST, 333"	[]	"CEDAR STREET, 333"	"NEW HAVEN, CT"	SHMI	41.303806	333 CEDAR STREET	ACADEMIC
3130	OPEN	NATHAN SMITH BLDG	[]	6510	MED	-72.934532	"CEDAR ST, 333"	[]	"CEDAR STREET, 333"	"NEW HAVEN, CT"	NSB	41.303611	333 CEDAR STREET	ACADEMIC
3140	OPEN	STERLING HALL MED CDU	[]	6510	MED	-72.933898	"CEDAR ST, 333"	[]	"CEDAR STREET, 333"	"NEW HAVEN, CT"	SHMICDU	41.304066	333 CEDAR STREET	ACADEMIC
3155	OPEN	"LAB OF EPIDEM, PUBHL"	[]	6510	MED	-72.932262	"COLLEGE ST,  60"	Yale Epidemiology Lab	"COLLEGE STREET,  60"	"NEW HAVEN, CT"	LEPH	41.303706	60 COLLEGE STREET	ACADEMIC
3160	OPEN	STERLING POWER PLANT	[]	6519	MED	-72.932705	"CONGRESS AVE, 309"	[]	"CONGRESS AVENUE, 309"	"NEW HAVEN, CT"	SPP	41.30302	309 CONGRESS AVENUE	OPERATIONS
3165	OPEN	BOYER CTR MOLEC MED	[]	6519	MED	-72.932705	"CONGRESS AVE, 295"	[]	"CONGRESS AVENUE, 295"	"NEW HAVEN, CT"	BCMM	41.302396	295 CONGRESS AVENUE	ACADEMIC
3167	OPEN	LOT 100 - BCMM WEST	[]	6519	MED	-72.93335	"CONGRESS AVE, 297"	[]	"CONGRESS AVENUE, 297"	"NEW HAVEN, CT"	LOT100	41.302507	297 CONGRESS AVENUE	PARKING
3174	OPEN	"TEMPLE ST,  60"	[]	6510	MED	[]	"TEMPLE ST, 60"	[]	"TEMPLE STREET,  60"	"NEW HAVEN, CT"	TEMP060	[]	60 TEMPLE STREET	ACADEMIC
3175	OPEN	"TEMPLE ST,  40"	[]	6510	MED	-72.929221	"TEMPLE ST, 40"	[]	"TEMPLE STREET,  40"	"NEW HAVEN, CT"	TEMP040	41.304029	40 TEMPLE STREET	ACADEMIC
3180	OPEN	"NIESON, IRVING HARRIS BLD"	[]	6519	MED	-72.933492	"S FRONTAGE RD, 230"	[]	"SOUTH FRONTAGE ROAD, 230"	"NEW HAVEN, CT"	NIHB	41.304207	230 SOUTH FRONTAGE ROAD	ACADEMIC
3181	OPEN	LOT  92 - SHMB&I NORTH	[]	6519	MED	-72.933043	"S FRONTAGE RD, 240"	[]	"SOUTH FRONTAGE ROAD, 240"	"NEW HAVEN, CT"	LOT 92	41.304155	240 SOUTH FRONTAGE ROAD	PARKING
3183	OPEN	"CHURCH ST SOUTH,   2"	[]	6519	MED	-72.930023	"CHURCH ST S, 2"	[]	"CHURCH STREET SOUTH,  2"	"NEW HAVEN, CT"	CSS002	41.302126	2 CHURCH ST SOUTH	ACADEMIC
3184	OPEN	LOT  98 - 50 WASHINGTON	"LAFAYETTE ST, 246 - PARCEL"	6519	MED	-72.930935	"WASHINGTON AVE,  50"	[]	"WASHINGTON AVENUE,  50"	"NEW HAVEN, CT"	LOT 98	41.302111	50 WASHINGTON AVENUE	PARKING
3186	OPEN	LOT  99 - 206 LAFAYETTE	[]	6519	MED	-72.930411	"LAFAYETTE ST, 206"	[]	"LAFAYETTE STREET, 206"	"NEW HAVEN, CT"	LOT 99	41.301575	206 LAFAYETTE STREET	PARKING
3210	OPEN	"DAVENPORT AVE, 132"	[]	6519	MED	-72.937721	"DAVENPORT AVE, 132"	[]	"DAVENPORT AVENUE, 132"	"NEW HAVEN, CT"	DAV132	41.302551	132 DAVENPORT AVENUE	ACADEMIC
3200	OPEN	YALE PHYSICIANS BLDG	[]	6519	MED	-72.936396	"HOWARD AVE, 800"	[]	"HOWARD AVENUE, 800"	"NEW HAVEN, CT"	YPB	41.302516	800 HOWARD AVENUE	ACADEMIC
3205	OPEN	HOWARD AVE GARAGE	[]	6519	MED	-72.936199	"HOWARD AVE, 790"	[]	"HOWARD AVENUE, 790"	"NEW HAVEN, CT"	HAG	41.301841	790 HOWARD AVENUE	PARKING
3215	OPEN	CONN MENTAL HEALTH CTR	[]	6519	MED	-72.936779	"PARK ST, 34"	[]	"PARK STREET,  34"	"NEW HAVEN, CT"	CMHC	41.305466	34 PARK STREET	ACADEMIC
3282	OPEN	LOT   1-99 DAVENPORT AV	[]	6519	MED	[]	"DAVENPORT AVE, 99"	[]	"DAVENPORT AVE,  99"	"NEW HAVEN, CT"	LOT   1	[]	99 DAVENPORT AVENUE	PARKING
3300	OPEN	"LAB FOR SUR, OBST, GYN"	[]	6519	MED	-72.934951	"CONGRESS AVE, 375"	[]	"CONGRESS AVENUE, 375"	"NEW HAVEN, CT"	LSOG	41.301663	375 CONGRESS AVENUE	ACADEMIC
3305	OPEN	PRIMARY CARE CENTER	[]	6519	MED	-72.93496	"HOWARD AVE, 789"	[]	"HOWARD AVENUE, 789"	"NEW HAVEN, CT"	PCC	41.302043	789 HOWARD AVENUE	ACADEMIC
3310	OPEN	TOMPKINS MEM PAVILION	[]	6519	MED	-72.935185	"HOWARD AVE, 789"	[]	"HOWARD AVENUE, 789"	"NEW HAVEN, CT"	TMP	41.30233	789 HOWARD AVENUE	ACADEMIC
3315	OPEN	DANA CLINIC BLDG	[]	6519	MED	-72.935721	"HOWARD AVE, 789"	[]	"HOWARD AVENUE, 789"	"NEW HAVEN, CT"	DCB	41.302453	789 HOWARD AVENUE	ACADEMIC
3320	OPEN	FITKIN MEM. PAVILION	[]	6519	MED	-72.935595	"HOWARD AVE, 789"	[]	"HOWARD AVENUE, 789"	"NEW HAVEN, CT"	FMP	41.302826	789 HOWARD AVENUE	ACADEMIC
3325	OPEN	MAGNETIC RESONANCE CTR	[]	6519	MED	-72.935719	"HOWARD AVE, 789"	[]	"HOWARD AVENUE, 789"	"NEW HAVEN, CT"	MRC	41.302922	789 HOWARD AVENUE	ACADEMIC
3330	OPEN	LIPPARD LAB CLIN INVEST	[]	6510	MED	-72.93569	"YORK ST,  15"	[]	"YORK STREET,  15"	"NEW HAVEN, CT"	LLCI	41.30319	15 YORK STREET	ACADEMIC
3335	OPEN	"LAB FOR MEDIC, PEDIAT"	[]	6510	MED	-72.935311	"YORK ST,  15"	[]	"YORK STREET,  15"	"NEW HAVEN, CT"	LMP	41.303192	15 YORK STREET	ACADEMIC
3340	OPEN	FITKIN MEM. PAV. AUD.	[]	6519	MED	-72.934918	"HOWARD AVE, 789"	[]	"HOWARD AVENUE, 789"	"NEW HAVEN, CT"	FMPA	41.303029	789 HOWARD AVENUE	ACADEMIC
3345	OPEN	HUNTER BLDG	[]	6510	MED	-72.935088	"YORK ST,  15"	[]	"YORK STREET,  15"	"NEW HAVEN, CT"	HRT	41.303408	15 YORK STREET	ACADEMIC
3350	OPEN	WINCHESTER BLDG	[]	6510	MED	-72.934634	"YORK ST,  25"	[]	"YORK STREET,  25"	"NEW HAVEN, CT"	WWW	41.30332	25 YORK STREET	ACADEMIC
3355	OPEN	BOARDMAN BLDG	[]	6510	MED	-72.934334	"CEDAR ST, 330"	[]	"CEDAR STREET, 330"	"NEW HAVEN, CT"	BB	41.302664	330 CEDAR STREET	ACADEMIC
3360	OPEN	CLINIC BLDG	[]	6519	MED	-72.935079	"HOWARD AVE, 789"	[]	"HOWARD AVENUE, 789"	"NEW HAVEN, CT"	CB	41.302663	789 HOWARD AVENUE	ACADEMIC
3370	OPEN	TOMPKINS EAST BLDG	[]	6519	MED	-72.934527	"HOWARD AVE, 789"	[]	"HOWARD AVENUE, 789"	"NEW HAVEN, CT"	TE	41.302425	789 HOWARD AVENUE	ACADEMIC
3375	OPEN	BRADY MEMORIAL LABOR	[]	6510	MED	-72.93404	"CEDAR ST, 310"	[]	"CEDAR STREET, 310"	"NEW HAVEN, CT"	BML	41.302205	310 CEDAR STREET	ACADEMIC
3400	OPEN	THE ANLYAN CENTER	CONGRESS AVENUE BUILDING	6519	MED	-72.934237	"CEDAR ST, 300"	[]	"CEDAR STREET, 300"	"NEW HAVEN, CT"	TAC	41.301327	300 CEDAR STREET	ACADEMIC
3405	OPEN	LOT  96 - TAC EAST	LOT 96A	6519	MED	-72.93408	"WASHINGTON AVE, 225"	[]	"WASHINGTON AVENUE, 225"	"NEW HAVEN, CT"	LOT 96	41.300364	225 WASHINGTON AVENUE	PARKING
3406	OPEN	WASHINGTON AV RSCH BLD	[]	6519	MED	[]	[]	[]	"WASHINGTON AVE,"	"NEW HAVEN, CT"	WARB	[]	[]	ACADEMIC
1350	OPEN	BENJAMIN FRANKLIN COLLEGE	[]	6511	CEN	-72.925392	"PROSPECT ST, 90"	[]	"PROSPECT STREET,  90"	"NEW HAVEN, CT"	BF	41.314576	90 PROSPECT STREET	DORMITORY
1354	OPEN	PAULI MURRAY COLLEGE	[]	6511	CEN	-72.925488	"PROSPECT ST, 130"	[]	"PROSPECT STREET, 130"	"NEW HAVEN, CT"	MY	41.31523	130 PROSPECT STREET	DORMITORY
1385	OPEN	ROSE CENTER	[]	6511	CEN	-72.928808	"ASHMUN ST, 101"	[]	"ASHMUN STREET, 101"	"NEW HAVEN, CT"	ROSE	41.315946	101 ASHMUN STREET	ADMIN
1390	OPEN	YALE HEALTH CENTER	[]	6511	CEN	-72.927574	"LOCK ST, 55"	[]	"LOCK STREET, 55"	"NEW HAVEN, CT"	YHC	41.315632	55 LOCK STREET	ADMIN
1392	OPEN	LOCK ST GARAGE	[]	6511	CEN	-72.928025	"LOCK ST, 57"	[]	"LOCK STREET, 57"	"NEW HAVEN, CT"	LSG	41.316201	57 LOCK STREET	PARKING
1401	OPEN	GROUNDS MAINT GARAGE 4	[]	6511	CEN	-72.929168	"ASHMUN ST, 76"	[]	"ASHMUN STREET,  76"	"NEW HAVEN, CT"	GMG4	41.314922	76 ASHMUN STREET	OPERATIONS
1402	OPEN	"ASHMUN ST,78/LAKE PL,10"	[]	6511	CEN	[]	"ASHMUN ST, 78"	[]	"ASHMUN STREET,  78"	"NEW HAVEN, CT"	ASHM078	[]	78 ASHMUN STREET	ADMIN
1403	OPEN	LOT  78 - PWG NORTH	[]	6511	CEN	-72.928994	"ASHMUN ST, 66"	[]	"ASHMUN STREET,  66"	"NEW HAVEN, CT"	LOT 78	41.314593	66 ASHMUN STREET	PARKING
1405	OPEN	"ASHMUN ST, 100"	[]	6511	CEN	[]	"ASHMUN ST, 100"	[]	"ASHMUN STREET, 100"	"NEW HAVEN, CT"	ASHM100	[]	100 ASHMUN STREET	ADMIN
1406	OPEN	"ASHMUN ST,  96"	[]	6511	CEN	[]	"ASHMUN ST, 96"	[]	"ASHMUN STREET,  96"	"NEW HAVEN, CT"	ASHM096	[]	96 ASHMUN STREET	PARKING
1413	OPEN	BAKER HALL	"NEW RESIDENCE HALL/ASHMUN STREET, 40"	6511	CEN	-72.929123	"TOWER PKWY,100"	[]	"TOWER PARKWAY,100"	"NEW HAVEN, CT"	BAKER	41.313749	100 TOWER PARKWAY	DORMITORY
1425	OPEN	CENTRAL POWER PLANT	[]	6511	CEN	-72.928887	"TOWER PKWY, 120"	[]	"TOWER PARKWAY,120"	"NEW HAVEN, CT"	CPP	41.313039	120 TOWER PARKWAY	OPERATIONS
1440	OPEN	PAYNE WHITNEY GYM	[]	6511	CEN	-72.930945	"TOWER PKWY, 70"	[]	"TOWER PARKWAY, 70"	"NEW HAVEN, CT"	PWG	41.313769	70 TOWER PARKWAY	ATHLETICS
1445	OPEN	RAY TOMPKINS HOUSE	[]	6511	CEN	-72.931827	"TOWER PKWY, 20"	[]	"TOWER PARKWAY, 20"	"NEW HAVEN, CT"	RTH	41.313218	20 TOWER PARKWAY	ADMIN
1446	OPEN	LOT  77 - RTH WEST	[]	6511	CEN	-72.931904	"TOWER PKWY, 20"	[]	"TOWER PARKWAY, 20"	"NEW HAVEN, CT"	LOT 77	41.313378	20 TOWER PARKWAY	PARKING
1447	OPEN	LOT  78W - PWG WEST	[]	6511	CEN	-72.931588	"LAKE PL, 84"	[]	"LAKE PLACE, 84"	"NEW HAVEN, CT"	LOT 78W	41.314002	84 LAKE PLACE	PARKING
1482	OPEN	"DIXWELL AVE, 40"	[]	6511	CEN	-72.932789	"DIXWELL AVE, 40"	[]	"DIXWELL AVENUE, 40"	"NEW HAVEN, CT"	DIX0040	41.313831	40 DIXWELL AVENUE	VACANT
1484	OPEN	"GOFFE ST, 63-65"	[]	6511	CEN	-72.93359	"GOFFE ST, 63"	[]	"GOFFE STREET, 63-65"	"NEW HAVEN, CT"	GOFFE63	41.31464	63-65 GOFFE STREET	OPERATIONS
1485	OPEN	"GOFFE ST, 69-83"	[]	6511	CEN	-72.933686	"GOFFE ST, 69"	[]	"GOFFE STREET, 69-83"	"NEW HAVEN, CT"	GOFFE69	41.314746	69-83 GOFFE STREET	OPERATIONS
1486	OPEN	"GOFFE ST, 87"	[]	6511	CEN	-72.934066	"GOFFE ST, 87"	[]	"GOFFE STREET, 87"	"NEW HAVEN, CT"	GOFFE87	41.314975	87 GOFFE STREET	OPERATIONS
1487	OPEN	"GOFFE ST, 89 LAND"	[]	6511	CEN	-72.934165	"GOFFE ST, 89"	[]	"GOFFE STREET, 89"	"NEW HAVEN, CT"	GOFFE89	41.315091	89 GOFFE STREET	OPERATIONS
1488	OPEN	"GOFFE ST, 85"	[]	6511	CEN	-72.933983	"GOFFE ST, 85"	[]	"GOFFE STREET, 85"	"NEW HAVEN, CT"	GOFFE85	41.314888	85 GOFFE STREET	OPERATIONS
1489	OPEN	"GOFFE ST, 49"	[]	6511	CEN	-72.933563	"GOFFE ST, 49"	[]	"GOFFE STREET, 49"	"NEW HAVEN, CT"	GOFFE49	41.314478	49 GOFFE STREET	ADMIN
4064	OPEN	"CLARK AVE, 164"	[]	6405	CT	[]	"CLARK AVE, 164"	[]	"CLARK AVENUE, 164"	"BRANFORD, CT"	CLRK164	[]	164 CLARK AVENUE	ATHLETICS
1505	OPEN	LEET OLIVER MEM HALL	[]	6511	CEN	-72.924334	"HILLHOUSE AVE, 12"	[]	"HILLHOUSE AVENUE, 12"	"NEW HAVEN, CT"	LOM	41.312687	12 HILLHOUSE AVENUE	ACADEMIC
1510	OPEN	DUNHAM LAB	[]	6511	CEN	-72.924548	"HILLHOUSE AVE, 10"	[]	"HILLHOUSE AVENUE, 10"	"NEW HAVEN, CT"	DL	41.312299	10 HILLHOUSE AVENUE	ACADEMIC
1515	OPEN	KIRTLAND HALL	[]	6511	CEN	-72.924646	"HILLHOUSE AVE,  2"	[]	"HILLHOUSE AVENUE,  2"	"NEW HAVEN, CT"	K	41.311865	2 HILLHOUSE AVENUE	ACADEMIC
1520	OPEN	SHEFFD-STERL-STRATHC	[]	6511	CEN	-72.925272	"PROSPECT ST,   1"	[]	"PROSPECT STREET,   1"	"NEW HAVEN, CT"	SSS	41.311851	1 PROSPECT STREET	ACADEMIC
1525	OPEN	BECTON E&AS CENTER	[]	6511	CEN	-72.925221	"PROSPECT ST,  15"	[]	"PROSPECT STREET,  15"	"NEW HAVEN, CT"	BCT	41.312583	15 PROSPECT STREET	ACADEMIC
1530	OPEN	A.K. WATSON HALL	SHEFFIELD CHEM LAB; SHEFFIELD LAB OF ENG. MECH.	6511	CEN	-72.924933	"PROSPECT ST,  51"	Sheffield Chemical Laboratory /Sheffield Laboratory of Engineering Mechanics/She	"PROSPECT STREET,  51"	"NEW HAVEN, CT"	AKW	41.313064	51 PROSPECT STREET	ACADEMIC
1535	OPEN	LOT  43 -MALONE EAST	[]	6511	CEN	-72.924436	"PROSPECT ST,  53"	[]	"PROSPECT STREET,  53"	"NEW HAVEN, CT"	LOT 43	41.312985	53 PROSPECT STREET	PARKING
1540	OPEN	MALONE ENGIN CENTER	[]	6511	CEN	-72.924858	"PROSPECT ST,  55"	[]	"PROSPECT STREET,  55"	"NEW HAVEN, CT"	MEC	41.313348	55 PROSPECT STREET	ACADEMIC
1605	OPEN	"TEMPLE ST, 442"	A. A. THOMPSON HSE	6511	CEN	-72.922578	"TEMPLE ST, 442"	A. A. Thompson Hs	"TEMPLE STREET, 442"	"NEW HAVEN, CT"	TEMP442	41.313067	442 TEMPLE STREET	ACADEMIC
1607	OPEN	LOT  39 -442 TEMP WEST	[]	6511	CEN	-72.922648	"TRUMBULL ST, 82"	[]	"TRUMBULL STREET, 82"	"NEW HAVEN, CT"	LOT 39	41.313142	82 TRUMBULL STREET	PARKING
4058	OPEN	YALE-MYERS FOR STAFF BD	[]	6242	CT	[]	"CENTER PIKE, 150"	[]	"CENTER PIKE, 150"	"EASTFORD, CT"	YMF-SB	[]	150 CENTER PIKE	ACADEMIC
4060	OPEN	"WINTERGREEN AVE, 105"	YALE NURSERY (LAND)	6514	CT	[]	"WINTERGREEN AVE, 105"	[]	"WINTERGREEN AVENUE, 105"	"HAMDEN, CT"	WINT105	[]	105 WINTERGREEN AVENUE	OPERATIONS
4062	OPEN	MCNAY SAIL BOAT STOR	[]	6405	CT	[]	"CLARK AVE, 179"	[]	"CLARK AVENUE, 179"	"BRANFORD, CT"	MFSS	[]	179 CLARK AVENUE	ATHLETICS
1727	OPEN	"TEMPLE ST, 421/WHT58-64"	[]	6511	CEN	-72.922282	"TEMPLE ST, 421"	[]	"TEMPLE STREET, 421"	"NEW HAVEN, CT"	TEMP421	41.312278	421 TEMPLE STREET	ADMIN
1730	OPEN	"TEMPLE ST, 433/WHT68-80"	[]	6511	CEN	-72.922248	"TEMPLE ST, 433"	[]	"TEMPLE STREET, 433"	"NEW HAVEN, CT"	TEMP433	41.312602	433 TEMPLE STREET	ADMIN
1750	OPEN	GROVE ST PARK GARAGE	[]	6511	CEN	-72.921686	"GROVE ST, 57"	[]	"GROVE STREET,  57"	"NEW HAVEN, CT"	GSPG	41.310436	57 GROVE STREET	PARKING
1760	OPEN	"WHITNEY AVE, 121"	[]	6510	CEN	-72.921209	"WHITNEY AVE, 121"	[]	"WHITNEY AVENUE, 121"	"NEW HAVEN, CT"	WHIT121	41.313818	121 WHITNEY AVENUE	ACADEMIC
1761	OPEN	LOT 121-121 WHITNEY AVE	[]	6510	CEN	[]	"WHITNEY AVE, 121"	[]	"WHITNEY AVENUE, 121"	"NEW HAVEN, CT"	LOT 121	[]	121 WHITNEY AVENUE	PARKING
1775	OPEN	"WHITNEY AVE,  55"	[]	6510	CEN	-72.921861	"WHITNEY AVE,  55"	[]	"WHITNEY AVENUE,  55"	"NEW HAVEN, CT"	WHIT055	41.311945	55 WHITNEY AVENUE	ADMIN
1777	OPEN	"AUDUBON CT, 306"	[]	6510	CEN	[]	"AUDUBON CT, 306"	[]	"AUDUBON COURT, 306"	"NEW HAVEN, CT"	AUDCT306	[]	306 AUDUBON COURT	RESIDENTIAL
1800	OPEN	SILLIMAN COLLEGE	INCL. BYERS HALL & VANDERBILT SCIENTIFIC HALL	6511	CEN	-72.924871	"COLLEGE ST, 505"	[]	"COLLEGE STREET, 505"	"NEW HAVEN, CT"	SM	41.310813	505 COLLEGE STREET	DORMITORY
1810	OPEN	"COLLEGE ST, 493"	[]	6511	CEN	-72.925666	"COLLEGE ST, 493"	[]	"COLLEGE STREET, 493"	"NEW HAVEN, CT"	COLL493	41.310847	493 COLLEGE STREET	ACADEMIC
1816	OPEN	"WALL ST, 81"	[]	6511	CEN	-72.925454	"WALL ST, 81"	[]	"WALL STREET,  81"	"NEW HAVEN, CT"	WALL81	41.310642	81 WALL STREET	ACADEMIC
1820	OPEN	TIMOTHY DWIGHT COLL.	[]	6511	CEN	-72.923764	"TEMPLE ST, 345"	[]	"TEMPLE STREET, 345"	"NEW HAVEN, CT"	TD	41.31028	345 TEMPLE STREET	DORMITORY
1824	OPEN	LOT  53 - 258 CHURCH	[]	6510	CEN	[]	"CHURCH ST, 258"	[]	"CHURCH STREET, 258"	"NEW HAVEN, CT"	LOT 53	[]	258 CHURCH STREET	PARKING
1825	OPEN	"CHURCH ST, 258/GROVE,96"	"GROVE ST, 96 2ND ENTRNC/ABBY SALISBURY/ELFORD P. TROWBRIDGE HSE"	6510	CEN	-72.922927	"CHURCH ST, 258"	[]	"CHURCH STREET, 258"	"NEW HAVEN, CT"	CHUR258	41.31039	258 CHURCH STREET	ACADEMIC
1830	OPEN	"CHURCH ST, 250"	PRESIDENT WOOLSEY HOUSE	6510	CEN	-72.923057	"CHURCH ST, 250"	[]	"CHURCH STREET, 250"	"NEW HAVEN, CT"	CHUR250	41.310132	250 CHURCH STREET	ACADEMIC
4053	OPEN	YALE-MYERS FOR DINING	[]	6242	CT	[]	"CENTER PIKE, 150"	[]	"CENTER PIKE, 150"	"EASTFORD, CT"	YMF-DIN	[]	150 CENTER PIKE	ACADEMIC
4054	OPEN	YALE-MYERS FOR BUNK HSE	[]	6242	CT	[]	"CENTER PIKE, 150"	[]	"CENTER PIKE, 150"	"EASTFORD, CT"	YMF-BUNK	[]	150 CENTER PIKE	ACADEMIC
4055	OPEN	YALE-MYERS FOR CL&BUNK	[]	6242	CT	[]	"CENTER PIKE, 150"	[]	"CENTER PIKE, 150"	"EASTFORD, CT"	YMF-CL+B	[]	150 CENTER PIKE	ACADEMIC
4056	OPEN	YALE-MYERS FOR FRENCH	[]	6242	CT	[]	"CENTER PIKE, 150"	[]	"CENTER PIKE, 150"	"EASTFORD, CT"	YMF-FREN	[]	150 CENTER PIKE	ACADEMIC
1945	OPEN	HENDRIE HALL	[]	6511	CEN	-72.926175	"ELM ST, 165"	[]	"ELM STREET, 165"	"NEW HAVEN, CT"	HENDRIE	41.309383	165 ELM STREET	ACADEMIC
1946	OPEN	ADAMS CENTER	[]	6511	CEN	[]	"ELM ST, 165"	[]	"ELM STREET, 165"	"NEW HAVEN, CT"	ADAMS	[]	165 ELM STREET	ACADEMIC
1950	OPEN	LEIGH HALL	"COLLEGE ST, 435/UG ADMIS/UNIV HEALTH CTR"	6511	CEN	-72.926412	"COLLEGE ST, 435"	[]	"COLLEGE STREET, 435"	"NEW HAVEN, CT"	LGH	41.309852	435 COLLEGE STREET	ACADEMIC
1955	OPEN	"COLLEGE ST, 451"	FRANKLIN HALL/THETA XI ALUMNI HALL	6511	CEN	-72.926232	"COLLEGE ST, 451"	Theta Xi Fraternity Bldg	"COLLEGE STREET, 451"	"NEW HAVEN, CT"	COLL451	41.310136	451 COLLEGE STREET	ACADEMIC
1957	OPEN	LOT  55 -451 COLL EAST	[]	6511	CEN	-72.925993	"COLLEGE ST, 445"	[]	"COLLEGE STREET, 445"	"NEW HAVEN, CT"	LOT 55	41.310045	445 COLLEGE STREET	PARKING
1965	OPEN	LOT  51 -HENDRIE NORTH	[]	6511	CEN	-72.925536	"TEMPLE ST, 312"	[]	"TEMPLE STREET, 312"	"NEW HAVEN, CT"	LOT 51	41.309815	312 TEMPLE STREET	PARKING
1975	OPEN	"CHURCH ST, 234"	[]	6510	CEN	-72.923616	"CHURCH ST, 234"	[]	"CHURCH STREET, 234"	"NEW HAVEN, CT"	CHUR234	41.309474	234 CHURCH STREET	ADMIN
1976	OPEN	"CHURCH ST, 227"	[]	6510	CEN	-72.92322	"CHURCH ST, 227"	[]	"CHURCH STREET, 227"	"NEW HAVEN, CT"	CHUR227	41.309177	227 CHURCH STREET	RESIDENTIAL
1980	OPEN	"CHURCH ST, 195"	NEW HAVEN SAVINGS BANK	6510	CEN	-72.924047	"CHURCH ST, 195"	[]	"CHURCH STREET, 195"	"NEW HAVEN, CT"	CHUR195	41.30779	195 CHURCH STREET	ADMIN
1985	OPEN	"CHURCH ST, 157"	[]	6510	CEN	-72.924629	"CHURCH ST, 157"	[]	"CHURCH STREET, 157"	"NEW HAVEN, CT"	CHUR157	41.30688	157 CHURCH STREET	ADMIN
1995	OPEN	"CHURCH ST, 129"	[]	6510	CEN	[]	"CHURCH ST, 129"	[]	"CHURCH STREET, 129"	"NEW HAVEN, CT"	CHUR129	[]	129 CHURCH STREET	ACADEMIC
2000	OPEN	STERLING LAW BLDGS.	[]	6511	CEN	-72.928189	"WALL ST,127"	[]	"WALL STREET, 127"	"NEW HAVEN, CT"	SLB	41.312037	127 WALL STREET	ACADEMIC
2005	OPEN	BEINECKE LIBRARY	[]	6511	CEN	-72.927303	"WALL ST,121"	[]	"WALL STREET, 121"	"NEW HAVEN, CT"	BRBL	41.311564	121 WALL STREET	LIBRARY
2006	OPEN	GOLDMAN LAW LIB ANNEX	SLB LAW LIBRARY ANNEX	6511	CEN	-72.927193	"WALL ST, 127"	[]	"WALL STREET, 127"	"NEW HAVEN, CT"	GLLIB	41.311567	127 WALL STREET	LIBRARY
2007	OPEN	HEWITT UNIV QUADRANGLE	BEINECKE PLAZA	6511	CEN	-72.926938	"WALL ST, 111"	[]	"WALL STREET, 111"	"NEW HAVEN, CT"	HEWITT	41.311258	111 WALL STREET	[]
4044	OPEN	GREAT MTN FOR CABIN 4	[]	6031	CT	[]	"CHATTLETON RD, 209"	[]	"CHATTLETON ROAD, 209"	"CANAAN, CT"	GM-C4	[]	209 CHATTLETON ROAD	ACADEMIC
4045	OPEN	GREAT MTN FOR WASH HSE	[]	6031	CT	[]	"CHATTLETON RD, 209"	[]	"CHATTLETON ROAD, 209"	"CANAAN, CT"	GM-WH	[]	209 CHATTLETON ROAD	ACADEMIC
4046	OPEN	GREAT MTN FOR DIR CABIN	[]	6031	CT	[]	"CHATTLETON RD, 209"	[]	"CHATTLETON ROAD, 209"	"CANAAN, CT"	GM-DC	[]	209 CHATTLETON ROAD	ACADEMIC
4047	OPEN	GREAT MTN FOR GEN HSE	[]	6031	CT	[]	"CHATTLETON RD, 209"	[]	"CHATTLETON ROAD, 209"	"CANAAN, CT"	GM-GH	[]	209 CHATTLETON ROAD	ACADEMIC
4048	OPEN	GREAT MTN FOR PUMP HSE	[]	6031	CT	[]	"CHATTLETON RD, 209"	[]	"CHATTLETON ROAD, 209"	"CANAAN, CT"	GM-PH	[]	209 CHATTLETON ROAD	ACADEMIC
4051	OPEN	YALE-MYERS FOR BARN	[]	6242	CT	[]	"CENTER PIKE, 150"	[]	"CENTER PIKE, 150"	"EASTFORD, CT"	YMF-BN	[]	150 CENTER PIKE	ACADEMIC
2015	OPEN	WOOLSEY HALL	[]	6511	CEN	-72.926125	"COLLEGE ST, 500"	[]	"COLLEGE STREET, 500"	"NEW HAVEN, CT"	WOOL	41.31129	500 COLLEGE STREET	ASSEMBLY
2020	OPEN	WOODBRIDGE HALL	[]	6511	CEN	-72.926693	"WALL ST,105"	[]	"WALL STREET, 105"	"NEW HAVEN, CT"	WOOD	41.31117	105 WALL STREET	ADMIN
2025	OPEN	"SPRAGUE HALL,ARNOLD"	[]	6511	CEN	-72.926576	"COLLEGE ST, 470"	[]	"COLLEGE STREET, 470"	"NEW HAVEN, CT"	SMH	41.310687	470 COLLEGE STREET	ACADEMIC
2030	OPEN	W. L. HARKNESS HALL	[]	6511	CEN	-72.92687	"WALL ST,100"	William L. Harkness Recitation & Lecture Hall	"WALL STREET, 100"	"NEW HAVEN, CT"	WLH	41.310617	100 WALL STREET	ACADEMIC
2032	OPEN	CROSS CAMPUS	[]	6511	CEN	[]	"COLLEGE ST, 450"	[]	"COLLEGE STREET, 450"	"NEW HAVEN, CT"	CROSSCMP	[]	450 COLLEGE STREET	[]
2035	OPEN	GRACE HOPPER COLLEGE	"CALHOUN COLLEGE, JOHN"	6511	CEN	-72.927225	"ELM ST, 189"	[]	"ELM STREET, 189"	"NEW HAVEN, CT"	GH	41.309936	189 ELM STREET	DORMITORY
2470	OPEN	RUDOLPH HALL	[]	6511	CEN	-72.931892	"YORK ST, 180"	[]	"YORK STREET, 180"	"NEW HAVEN, CT"	RDH	41.308779	180 YORK STREET	ACADEMIC
2475	OPEN	"PARK ST, 205"	ALPHA CHI RHO	6511	CEN	-72.93297	"PARK ST, 205"	[]	"PARK STREET, 205"	"NEW HAVEN, CT"	PARK205	41.309222	205 PARK STREET	ACADEMIC
2476	OPEN	LOT  85-205 PARK NORTH	[]	6511	CEN	-72.932706	"PARK ST, 207"	[]	"PARK STREET, 207"	"NEW HAVEN, CT"	LOT 85	41.309232	207 PARK STREET	PARKING
2480	OPEN	"PARK ST, 211"	CHI PSI	6511	CEN	-72.932877	"PARK ST, 211"	[]	"PARK STREET, 211"	"NEW HAVEN, CT"	PARK211	41.309407	211 PARK STREET	ADMIN
2485	OPEN	"PARK ST, 215"	ALPHA DELTA PHI	6511	CEN	-72.932397	"PARK ST, 215"	[]	"PARK STREET, 215"	"NEW HAVEN, CT"	PARK215	41.309241	215 PARK STREET	ADMIN
2490	OPEN	"PARK ST, 217"	PHI GAMMA DELTA	6511	CEN	-72.932691	"PARK ST, 217"	[]	"PARK STREET, 217"	"NEW HAVEN, CT"	PARK217	41.309578	217 PARK STREET	ACADEMIC
2500	OPEN	SAYBROOK COLLEGE	[]	6511	CEN	-72.929603	"ELM ST, 242"	[]	"ELM STREET, 242"	"NEW HAVEN, CT"	SY	41.310092	242 ELM STREET	DORMITORY
2505	OPEN	BRANFORD COLLEGE	[]	6511	CEN	-72.928117	"HIGH ST, 74"	was Harkness Mem Quad [part- conn w/ Saybrook C]	"HIGH STREET, 74"	"NEW HAVEN, CT"	BR	41.310308	74 HIGH STREET	DORMITORY
4024	OPEN	AMITY AN FARM BLDG C	[]	6524	CT	-72.999511	"OLD AMITY RD, 48"	[]	"OLD AMITY ROAD, 48"	"BETHANY, CT"	AARFC	41.402139	48 OLD AMITY ROAD	ACADEMIC
4031	OPEN	"CIRCULAR AVE, 95-97"	[]	6514	CT	-72.934629	"CIRCULAR AVE, 95"	[]	"CIRCULAR AVENUE, 95-97"	"HAMDEN, CT"	CIRC95	41.348984	95-97 CIRCULAR AVENUE	ACADEMIC
4032	OPEN	"DIXWELL AVE, 1101"	[]	6514	CT	[]	"DIXWELL AVE, 1101"	[]	"DIXWELL AVENUE,1101"	"HAMDEN, CT"	DIX1101	[]	1101 DIXWELL AVENUE	ADMIN
4033	OPEN	WALPOLE LIB DAY MUSEUM	[]	6032	CT	[]	"MAIN ST, 154"	[]	"MAIN STREET, 154"	"FARMINGTON, CT"	WLDAYMUS	[]	154 MAIN STREET	LIBRARY
4040	OPEN	GREAT MTN FOR MAIN BLD	[]	6031	CT	[]	"CHATTLETON RD, 209"	[]	"CHATTLETON ROAD, 209"	"CANAAN, CT"	GM-MB	[]	209 CHATTLETON ROAD	ACADEMIC
4041	OPEN	GREAT MTN FOR CABIN 1	[]	6031	CT	[]	"CHATTLETON RD, 209"	[]	"CHATTLETON ROAD, 209"	"CANAAN, CT"	GM-C1	[]	209 CHATTLETON ROAD	ACADEMIC
4042	OPEN	GREAT MTN FOR CABIN 2	[]	6031	CT	[]	"CHATTLETON RD, 209"	[]	"CHATTLETON ROAD, 209"	"CANAAN, CT"	GM-C2	[]	209 CHATTLETON ROAD	ACADEMIC
2045	OPEN	BASS LIBRARY	CROSS CAMPUS LIBRARY - CCL	6511	CEN	-72.927608	"WALL ST, 110"	[]	"WALL STREET, 110"	"NEW HAVEN, CT"	BASSLB	41.310685	110 WALL STREET	LIBRARY
2050	OPEN	TRUMBULL COLLEGE	[]	6511	CEN	-72.929112	"ELM ST, 241"	[]	"ELM STREET, 241"	"NEW HAVEN, CT"	TC	41.310703	241 ELM STREET	DORMITORY
2055	OPEN	STERLING MEM LIBRARY	[]	6511	CEN	-72.928898	"HIGH ST,120"	[]	"HIGH STREET,120"	"NEW HAVEN, CT"	SML	41.311139	120 HIGH STREET	LIBRARY
2100	OPEN	MORSE COLLEGE	[]	6511	CEN	-72.930124	"YORK ST, 304"	[]	"YORK STREET, 304"	"NEW HAVEN, CT"	MC	41.312639	304 YORK STREET	DORMITORY
2105	OPEN	HALL OF GRAD STUDIES	[]	6511	CEN	-72.929413	"YORK ST, 320"	[]	"YORK STREET, 320"	"NEW HAVEN, CT"	HGS	41.31224	320 YORK STREET	ACADEMIC
2110	OPEN	"YORK ST, 276-286"	[]	6511	CEN	-72.929844	"YORK ST, 276"	[]	"YORK STREET, 276-286"	"NEW HAVEN, CT"	YORK276	41.311213	276-286 YORK STREET	REAL ESTATE
2130	OPEN	"BROADWAY, 35"	[]	6511	CEN	-72.930603	"BROADWAY, 35"	[]	"BROADWAY, 35"	"NEW HAVEN, CT"	BRWY35	41.311345	35 BROADWAY	ACADEMIC
2132	OPEN	OFF BROADWAY THEATER	[]	6511	CEN	-72.930712	"BROADWAY, 41"	[]	"BROADWAY, 41"	"NEW HAVEN, CT"	OBT	41.311475	41 BROADWAY	ASSEMBLY
4018	OPEN	"LEEDER HILL DR, 105"	[]	6517	CT	[]	"LEEDER HILL DR, 105"	[]	"LEEDER HILL DRIVE, 105"	"HAMDEN, CT"	LDHL105	[]	105 LEEDER HILL DRIVE	ADMIN
4020	OPEN	VA MEDICAL CENTER	[]	6516	CT	[]	"CAMPBELL AVE, 950"	[]	"CAMPBELL AVENUE, 950"	"WEST HAVEN, CT"	VAMC	[]	950 CAMPBELL AVENUE	ACADEMIC
3829	OPEN	OEC - LODGE (FORMER)	TRACY HALL	6333	CT	[]	"UPPER PATTAGANSETT RD, 291"	[]	"UPPER PATTAGANSETT RD,291"	"EAST LYME, CT"	OEC-LDG	[]	291 UPPER PATTAGANSETT RD	ATHLETICS
3900	OPEN	MCNAY SAILING CENTER	YALE CORIN YACHT CLUB	6405	CT	-72.851088	"CLARK AVE, 179"	[]	"CLARK AVENUE, 179"	"BRANFORD, CT"	MFSC	41.255831	179 CLARK AVENUE	ATHLETICS
3910	OPEN	GUILFORD BIO FLD STA	[]	6437	CT	-72.730199	"OLD QUARRY RD, 276"	[]	"OLD QUARRY ROAD, 276"	"GUILFORD, CT"	GBFS	41.260472	276 OLD QUARRY ROAD	ACADEMIC
4000	OPEN	OEC - OUTDOOR EDUC CTR	[]	6333	CT	-72.251918	"UPPER PATTAGANSETT RD, 291"	[]	"UPPER PATTAGANSETT RD,291"	"EAST LYME, CT"	OEC	41.387536	291 UPPER PATTAGANSETT RD	ATHLETICS
4104	OPEN	GALES FERRY BOATHSE	[]	6335	CT	[]	"RIVERSIDE PL, 4"	[]	"RIVERSIDE PLACE, 4"	"GALES FERRY, CT"	GALESBH	[]	4 RIVERSIDE PLACE	ATHLETICS
4120	OPEN	"BOSTON POST RD, 1445"	[]	6437	CT	[]	"BOSTON POST RD, 1445"	[]	"BOSTON POST ROAD, 1445"	"GUILFORD, CT"	BPR1445	[]	1445 BOSTON POST ROAD	ACADEMIC
4123	OPEN	"STRAITS TPKE, 1625"	[]	6762	CT	[]	"STRAITS TPKE, 1625"	[]	"STRAITS TURNPIKE, 1625"	"MIDDLEBURY, CT"	STR1625	[]	1625 STRAITS TURNPIKE	ACADEMIC
4126	OPEN	"WELLINGTON RD, 48"	[]	6461	CT	[]	"WELLINGTON RD, 48"	[]	"WELLINGTON ROAD, 48"	"MILFORD, CT"	WELL48	[]	48 WELLINGTON ROAD	ACADEMIC
4127	OPEN	"MAIN ST, 2874"	[]	6614	CT	[]	"MAIN ST, 2874"	[]	"MAIN STREET, 2874"	"STRATFORD, CT"	MAIN2874	[]	2874 MAIN STREET	ACADEMIC
4128	OPEN	"HIGHLAND AVE, 416"	[]	6410	CT	[]	"HIGHLAND AVE, 416"	[]	"HIGHLAND AVENUE, 416"	"CHESHIRE, CT"	HGHLD416	[]	416 HIGHLAND AVENUE	ACADEMIC
4129	OPEN	"NORTH MAIN ST, 144"	[]	6405	CT	[]	"NO MAIN ST, 144"	[]	"NORTH MAIN STREET, 144"	"BRANFORD, CT"	NMAIN144	[]	144 NORTH MAIN STREET	ACADEMIC
4130	OPEN	EMERY POND	[]	6437	CT	[]	NEW QUARRY RD	[]	NEW QUARRY ROAD	"GUILFORD, CT"	EMRYPOND	[]	NEW QUARRY ROAD	ACADEMIC
4131	OPEN	SCRANTON PROPERTY	[]	6405	CT	[]	[]	[]	"BRANFORD,"	"BRANFORD, CT"	SCRANTON	[]	[]	ACADEMIC
4132	OPEN	RICHARDS PROPERTY	[]	6405	CT	[]	[]	[]	"BRANFORD,"	"BRANFORD, CT"	RICHARDS	[]	[]	ACADEMIC
4133	OPEN	"MAIN ST,  330"	[]	6106	CT	[]	"MAIN ST, 330"	[]	"MAIN STREET,  330"	"HARTFORD, CT"	MAIN0330	[]	330 MAIN STREET	ACADEMIC
4135	OPEN	"EAST MAIN ST, 322"	[]	6405	CT	[]	"E MAIN ST, 322"	[]	"EAST MAIN STREET, 322"	"BRANFORD, CT"	EMAIN322	[]	322 EAST MAIN STREET	ACADEMIC
4136	OPEN	"LONG RIDGE RD, 260"	[]	6927	CT	[]	"LONG RIDGE RD, 260"	[]	"LONG RIDGE ROAD, 260"	"STAMFORD, CT"	LRIDG260	[]	260 LONG RIDGE ROAD	ACADEMIC
4137	OPEN	"CHURCH ST, 206"	[]	6437	CT	[]	"CHURCH ST, 206"	[]	"CHURCH STREET, 206"	"GUILFORD, CT"	CHST206	[]	206 CHURCH STREET	ACADEMIC
2732	OPEN	"PARK ST, 111"	[]	6511	MED	-72.934299	"PARK ST, 111"	[]	"PARK STREET, 111"	"NEW HAVEN, CT"	PARK111	41.307219	111 PARK STREET	RESIDENTIAL
2955	OPEN	"COLLEGE ST, 135 (127-153)"	[]	6510	MED	-72.930358	"COLLEGE ST, 135"	[]	"COLLEGE STREET, 127-153"	"NEW HAVEN, CT"	COLL135	41.304523	127-153 COLLEGE STREET	ADMIN
2957	OPEN	"CHURCH ST,   1"	[]	6510	MED	-72.926939	"CHURCH ST, 1"	[]	"CHURCH STREET,  1"	"NEW HAVEN, CT"	CHUR01	41.303834	1 CHURCH STREET	ACADEMIC
2959	OPEN	LOT  95 -127 COLL EAST	GEORGE ST & N. FRONTAGE ENTRANCES	6510	MED	-72.930098	"GEORGE ST, 250"	[]	"GEORGE STREET, 250"	"NEW HAVEN, CT"	LOT 95	41.304423	250 GEORGE STREET	PARKING
2960	OPEN	"GEORGE ST, 300"	[]	6511	MED	-72.931301	"GEORGE ST, 300"	[]	"GEORGE STREET, 300"	"NEW HAVEN, CT"	GEOR300	41.304964	300 GEORGE STREET	ACADEMIC
2963	OPEN	"GEORGE ST, 350"	[]	6511	MED	[]	"GEORGE ST, 350"	[]	"GEORGE STREET, 350"	"NEW HAVEN, CT"	GEOR350	[]	350 GEORGE STREET	ADMIN
3000	OPEN	CONGRESS PLACE	"YALE PSYCHIATRIC INSTITUTE, BUILDING 1"	6519	MED	-72.933291	"CEDAR ST, 301"	[]	"CEDAR STREET, 301"	"NEW HAVEN, CT"	CP	41.301779	301 CEDAR STREET	ACADEMIC
3020	OPEN	"CONGRESS AVE, 270"	[]	6519	MED	-72.932257	"CONGRESS AVE, 270"	[]	"CONGRESS AVENUE, 270"	"NEW HAVEN, CT"	CONG270	41.301963	270 CONGRESS AVENUE	ACADEMIC
3025	OPEN	LOT  97-PIERCE FD NORTH	"CONGRESS AVE, 216 - PARCEL"	6519	MED	-72.931732	"WASHINGTON AVE,  41"	[]	"WASHINGTON AVENUE,  41"	"NEW HAVEN, CT"	LOT 97	41.302157	41 WASHINGTON AVENUE	PARKING
3030	OPEN	LOT  94-PIERCE FND EAST	BEHIND 270 CONGRESS AVE.	6519	MED	-72.932143	"WASHINGTON AVE,  81"	[]	"WASHINGTON AVENUE,  81"	"NEW HAVEN, CT"	LOT 94	41.301711	81 WASHINGTON AVENUE	PARKING
3050	OPEN	COLLEGE PLACE	[]	6510	MED	-72.931509	"COLLEGE ST, 37"	[]	"COLLEGE STREET,  37-55"	"NEW HAVEN, CT"	CLP	41.302996	37-55 COLLEGE STREET	ADMIN
3052	OPEN	LOT CP - CLP EAST	[]	6519	MED	-72.931049	"CONGRESS AVE, 13"	[]	"CONGRESS AVENUE, 13"	"NEW HAVEN, CT"	LOT CP	41.302915	13 CONGRESS AVENUE	PARKING
3053	OPEN	LOT CP2 - CLP SOUTH	[]	6519	MED	-72.931928	"CONGRESS AVE, 15"	[]	"CONGRESS AVENUE, 15"	"NEW HAVEN, CT"	LOT CP2	41.302533	15 CONGRESS AVENUE	PARKING
3065	OPEN	"CHURCH ST SOUTH, 100"	[]	6519	MED	-72.930286	"CHURCH ST S, 100"	[]	"CHURCH STREET SOUTH, 100"	"NEW HAVEN, CT"	CSS100	41.299479	100 CHURCH STREET SOUTH	ACADEMIC
3066	OPEN	LOT CSS - 100 CSS	[]	6519	MED	[]	"CHURCH ST SOUTH, 100"	[]	"CHURCH STREET SOUTH, 100"	"NEW HAVEN, CT"	LOT CSS	[]	100 CHURCH STREET SOUTH	PARKING
3070	OPEN	AMISTAD STREET BUILDING	[]	6519	MED	-72.931774	"AMISTAD ST, 10"	[]	"AMISTAD STREET, 10"	"NEW HAVEN, CT"	AMISB	41.300163	10 AMISTAD STREET	ACADEMIC
3071	OPEN	AMISTAD STREET GARAGE	[]	6519	MED	-72.931775	"AMISTAD ST, 10"	[]	"AMISTAD STREET, 10"	"NEW HAVEN, CT"	AMISG	41.29989	10 AMISTAD STREET	PARKING
3072	OPEN	AMISTAD STREET PARK	[]	6519	MED	-72.932189	"WASHINGTON AVE, 104"	[]	"WASHINGTON AVENUE, 104"	"NEW HAVEN, CT"	AMISPARK	41.300728	104 WASHINGTON AVENUE	[]
3100	OPEN	HOPE MEMORIAL BLDG	[]	6510	MED	-72.933483	"CEDAR ST, 315"	[]	"CEDAR STREET, 315"	"NEW HAVEN, CT"	JEH	41.302059	315 CEDAR STREET	ACADEMIC
3105	OPEN	STERLING HALL MED C	[]	6510	MED	-72.933718	"CEDAR ST, 333"	[]	"CEDAR STREET, 333"	"NEW HAVEN, CT"	SHMC	41.302556	333 CEDAR STREET	ACADEMIC
3110	OPEN	STERLING HALL MED L	[]	6510	MED	-72.93336	"CEDAR ST, 333"	[]	"CEDAR STREET, 333"	"NEW HAVEN, CT"	SHML	41.302982	333 CEDAR STREET	LIBRARY
3115	OPEN	STERLING HALL MED B	[]	6510	MED	-72.93347	"CEDAR ST, 333"	[]	"CEDAR STREET, 333"	"NEW HAVEN, CT"	SHMB	41.303453	333 CEDAR STREET	ACADEMIC
3145	OPEN	E.S. HARKNESS BLDG A	[]	6510	MED	-72.934413	"CEDAR ST, 367"	[]	"CEDAR STREET, 367"	"NEW HAVEN, CT"	ESHA	41.304315	367 CEDAR STREET	ACADEMIC
3150	OPEN	E.S. HARKNESS BLDG D	[]	6510	MED	-72.933917	"CEDAR ST, 367"	[]	"CEDAR STREET, 367"	"NEW HAVEN, CT"	ESHD	41.304411	367 CEDAR STREET	DORMITORY
3161	OPEN	STERLING PWR PLT COGEN	[]	6519	MED	-72.932356	"CONGRESS AVE, 309"	[]	"CONGRESS AVENUE, 309"	"NEW HAVEN, CT"	SPPC	41.303231	309 CONGRESS AVENUE	OPERATIONS
3620	OPEN	LAPHAM FIELD HOUSE	FIELD HOUSE BUILDING ONLY	6516	ATH	-72.960608	"DERBY AVE, 251"	[]	"DERBY AVENUE, 251"	"WEST HAVEN, CT"	LAPHAM	41.31051	251 DERBY AVENUE	ATHLETICS
3625	OPEN	"COXE CAGE,CHARLES E."	[]	6516	ATH	-72.961963	"DERBY AVE, 257"	[]	"DERBY AVENUE, 257"	"WEST HAVEN, CT"	COXE	41.311021	257 DERBY AVENUE	ATHLETICS
3630	OPEN	CULLMAN HEYMAN TENNIS	"CULLMAN COURTS, JOSEPH F."	6516	ATH	-72.962158	"DERBY AVE, 253"	[]	"DERBY AVENUE, 253"	"WEST HAVEN, CT"	CHTC	41.310391	253 DERBY AVENUE	ATHLETICS
3633	OPEN	"DERBY AVE, 287 - LAND"	[]	6516	ATH	[]	"DERBY AVE, 287"	[]	"DERBY AVENUE, 287"	"WEST HAVEN, CT"	DERBY287	[]	287 DERBY AVENUE	ATHLETICS
3635	OPEN	REESE STADIUM	[]	6515	ATH	-72.962137	"CENTRAL AVE, 75"	[]	"CENTRAL AVENUE, 75"	"NEW HAVEN, CT"	REESE	41.311531	75 CENTRAL AVENUE	ATHLETICS
3640	OPEN	SMILOW FIELD CENTER	OUTDOOR TENNIS COURT AREA	6511	ATH	-72.959817	"DERBY AVE,  249"	[]	"DERBY AVENUE, 249"	"NEW HAVEN, CT"	SMILOW	41.311237	249 DERBY AVENUE	ATHLETICS
3645	OPEN	WALTER CAMP GATE	[]	6516	ATH	-72.959565	"DERBY AVE, 249"	[]	"DERBY AVENUE, 249"	"WEST HAVEN, CT"	CAMP	41.310351	249 DERBY AVENUE	[]
3650	OPEN	VARSITY PRAC. FIELD B	[]	6516	ATH	[]	"CENTRAL AVE, 55"	[]	"CENTRAL AVENUE, 55"	"WEST HAVEN, CT"	FIELDB	[]	55 CENTRAL AVENUE	ATHLETICS
3655	OPEN	VARSITY PRAC. FIELD E	[]	6516	ATH	-72.962902	"CENTRAL AVE, 85"	[]	"CENTRAL AVENUE, 85"	"WEST HAVEN, CT"	FIELDE	41.312712	85 CENTRAL AVENUE	ATHLETICS
3660	OPEN	VARSITY PRAC. FIELD F	[]	6516	ATH	[]	"CENTRAL AVE, 95"	[]	"CENTRAL AVENUE, 95"	"WEST HAVEN, CT"	FIELDF	[]	95 CENTRAL AVENUE	ATHLETICS
3700	OPEN	INTRAMURAL PRACTICE A	[]	6515	ATH	-72.964805	"YALE AVE, 45"	[]	"YALE AVENUE, 45"	"NEW HAVEN, CT"	FIELDA	41.313298	45 YALE AVENUE	ATHLETICS
3709	OPEN	Y. FIELD BATTING CAGES	[]	6516	ATH	-72.958095	"DERBY AVE, 250"	[]	"DERBY AVENUE, 250"	"WEST HAVEN, CT"	YFBC	41.308771	250 DERBY AVENUE	ATHLETICS
3710	OPEN	YALE FIELD BASEBALL	[]	6516	ATH	-72.959327	"DERBY AVE, 250"	[]	"DERBY AVENUE, 250"	"WEST HAVEN, CT"	YALEFLD	41.30924	250 DERBY AVENUE	ATHLETICS
3711	OPEN	ARTIFICIAL TURF FIELD	[]	6516	ATH	-72.960488	"DERBY AVE, 256"	[]	"DERBY AVENUE, 256"	"WEST HAVEN, CT"	ARTTURF	41.307167	256 DERBY AVENUE	ATHLETICS
3712	OPEN	VARSITY FIELD Y	[]	6516	ATH	-72.958878	"DERBY AVE, 252"	[]	"DERBY AVENUE, 252"	"WEST HAVEN, CT"	FIELDY	41.307844	252 DERBY AVENUE	ATHLETICS
3713	OPEN	VARSITY FIELD X	[]	6516	ATH	-72.959636	"DERBY AVE, 254"	[]	"DERBY AVENUE, 254"	"WEST HAVEN, CT"	FIELDX	41.307677	254 DERBY AVENUE	ATHLETICS
3714	OPEN	"FRANK, CLINTON FIELD"	[]	6516	ATH	-72.960795	"DERBY AVE, 256"	[]	"DERBY AVENUE, 256"	"WEST HAVEN, CT"	FIELDCF	41.309507	256 DERBY AVENUE	ATHLETICS
3715	OPEN	DEWITT CUYLER COMPLX	[]	6516	ATH	-72.960665	"DERBY AVE, 256"	[]	"DERBY AVENUE, 256"	"WEST HAVEN, CT"	DEW CUYL	41.308217	256 DERBY AVENUE	ATHLETICS
3716	OPEN	DEWITT CUYLER STOR BLD	[]	6516	ATH	[]	"DERBY AVE, 256"	[]	"DERBY AVENUE, 256"	"WEST HAVEN, CT"	D-C STOR	[]	256 DERBY AVENUE	ATHLETICS
3720	OPEN	ARMORY AND STABLES	[]	6515	ATH	-72.964673	"CENTRAL AVE, 70"	[]	"CENTRAL AVENUE, 70"	"NEW HAVEN, CT"	ARMORY	41.311491	70 CENTRAL AVENUE	ATHLETICS
3725	OPEN	FIELD HOCKEY FIELD	[]	6516	ATH	[]	"CENTRAL AVE, 60"	[]	"CENTRAL AVENUE, 60"	"WEST HAVEN, CT"	FIELDH	[]	60 CENTRAL AVENUE	ATHLETICS
3730	OPEN	VARSITY SOFTBALL FIELD	[]	6516	ATH	-72.965336	"CENTRAL AVE, 50"	[]	"CENTRAL AVENUE, 50"	"WEST HAVEN, CT"	FIELDS	41.310731	50 CENTRAL AVENUE	ATHLETICS
3735	OPEN	INTRAMURAL FIELD C	[]	6516	ATH	-72.966512	"CENTRAL AVE, 50"	[]	"CENTRAL AVENUE, 50"	"WEST HAVEN, CT"	FIELDC	41.310048	50 CENTRAL AVENUE	ATHLETICS
3740	OPEN	"THOMPSON FIELD, ANTH"	[]	6516	ATH	-72.96453	"CENTRAL AVE, 80"	[]	"CENTRAL AVENUE, 80"	"WEST HAVEN, CT"	FIELDAT	41.312165	80 CENTRAL AVENUE	ATHLETICS
1108	OPEN	"WHITNEY AVE, 122"	[]	6510	CEN	-72.921705	"WHITNEY AVE, 122"	[]	"WHITNEY AVENUE, 122"	"NEW HAVEN, CT"	WHIT122	41.314279	122 WHITNEY AVENUE	VACANT
1110	OPEN	"SACHEM ST, 10 (158 WHIT)"	"WHITNEY AVE, 158 - WHIT158; JOHN NORTH HSE"	6511	CEN	-72.921483	"SACHEM ST, 10"	John North Hs	"SACHEM STREET, 10"	"NEW HAVEN, CT"	SACH010	41.315221	10 SACHEM STREET	ACADEMIC
1117	OPEN	LOT  37V -TRUMBULL VISIT	[]	6511	CEN	-72.922713	"TRUMBULL ST, 85"	[]	"TRUMBULL STREET, 85"	"NEW HAVEN, CT"	LOT 37V	41.313657	85 TRUMBULL STREET	PARKING
1120	OPEN	"HILLHOUSE AVE,27"	REV PROF GEORGE PARK FISHER HOUSE	6511	CEN	-72.923163	"HILLHOUSE AVE, 27"	Rev Prof George Park Fisher Hs	"HILLHOUSE AVENUE, 27"	"NEW HAVEN, CT"	HLH27	41.313684	27 HILLHOUSE AVENUE	ACADEMIC
1125	OPEN	ALLWIN HALL	ABIGAIL WHELPLEY HOUSE	6511	CEN	-72.923116	"HILLHOUSE AVE, 31"	Abigail Whelpley Hs	"HILLHOUSE AVENUE, 31"	"NEW HAVEN, CT"	ALW	41.313919	31 HILLHOUSE AVENUE	ACADEMIC
1130	OPEN	"HILLHOUSE AVE,35"	MARY PRICHARD HOUSE	6511	CEN	-72.922896	"HILLHOUSE AVE, 35"	Mary Prichard Hs	"HILLHOUSE AVENUE, 35"	"NEW HAVEN, CT"	HLH35	41.314187	35 HILLHOUSE AVENUE	HOUSING
1132	OPEN	"HILLHOUSE AVE,33"	[]	6511	CEN	-72.922535	"HILLHOUSE AVE, 33"	[]	"HILLHOUSE AVENUE, 33"	"NEW HAVEN, CT"	HLH33	41.313966	33 HILLHOUSE AVENUE	HOUSING
1135	OPEN	"HILLHOUSE AVE,37"	JOHN S GRAVES HSE; DANIEL COIT GILMAN HSE	6511	CEN	-72.922822	"HILLHOUSE AVE, 37"	J S Graves Hs;  D Colt Gilman Hs	"HILLHOUSE AVENUE, 37"	"NEW HAVEN, CT"	HLH37	41.314479	37 HILLHOUSE AVENUE	ACADEMIC
2405	OPEN	"ELM ST, 294-296"	"ELM ST, 294-296"	6511	CEN	-72.930282	"ELM ST, 294"	[]	"ELM STREET, 294-296"	"NEW HAVEN, CT"	ELM294	41.31066	294-296 ELM STREET	ACADEMIC
4009	OPEN	LINSLEY POND	[]	6471	CT	[]	"TWIN LAKES RD, 159"	[]	"TWIN LAKES ROAD, 159"	"NORTH BRANFORD, CT"	LINPOND	[]	159 TWIN LAKES ROAD	ACADEMIC
4010	OPEN	GILDER BOATHOUSE	[]	6418	CT	-73.103758	"ROOSEVELT DR, 280"	[]	"ROOSEVELT DRIVE, 280"	"DERBY, CT"	GILDER	41.327738	280 ROOSEVELT DRIVE	ATHLETICS
4011	OPEN	WALPOLE LIB OPER BARN	[]	6032	CT	[]	"MAIN ST, 154"	[]	"MAIN STREET, 154"	"FARMINGTON, CT"	WLOPRBRN	[]	154 MAIN STREET	OPERATIONS
4012	OPEN	"ROOT HOUSE, TIMOTHY"	WALPOLE APARTMENTS	6032	CT	[]	"MAIN ST, 158"	[]	"MAIN STREET, 158"	"FARMINGTON, CT"	ROOTHSE	[]	158 MAIN STREET	HOUSING
4013	OPEN	"WALPOLE LIBRARY, LEW"	[]	6032	CT	[]	"MAIN ST, 154"	[]	"MAIN STREET, 154"	"FARMINGTON, CT"	LWL	[]	154 MAIN STREET	LIBRARY
1145	OPEN	"HILLHOUSE AVE,51"	JOHN M. GRAVES HSE; JAMES M. B. DWIGHT HSE	6511	CEN	-72.922615	"HILLHOUSE AVE, 51"	"John M Graves Hs, J M B Dwight Hs"	"HILLHOUSE AVENUE, 51"	"NEW HAVEN, CT"	HLH51	41.315107	51 HILLHOUSE AVENUE	ACADEMIC
1152	OPEN	EDWARD P EVANS HALL	[]	6511	CEN	-72.920063	"WHITNEY AVE, 165"	[]	"WHITNEY AVENUE, 165"	"NEW HAVEN, CT"	EVANS	41.315074	165 WHITNEY AVENUE	ACADEMIC
1161	OPEN	"WHITNEY AVE, 205"	[]	6511	CEN	-72.919901	"WHITNEY AVE, 205"	[]	"WHITNEY AVENUE, 205"	"NEW HAVEN, CT"	WHIT205	41.316139	205 WHITNEY AVENUE	ADMIN
1177	OPEN	GROUNDS MAINT GARAGE 3	[]	6511	CEN	-72.919543	"WHITNEY AVE, 215"	[]	"WHITNEY AVENUE, 215"	"NEW HAVEN, CT"	GMG3	41.316139	215 WHITNEY AVENUE	OPERATIONS
1178	OPEN	LOT  41 -221 WHIT SOUTH	[]	6511	CEN	-72.91986	"WHITNEY AVE, 215"	[]	"WHITNEY AVENUE, 215"	"NEW HAVEN, CT"	LOT 41	41.316347	215 WHITNEY AVENUE	PARKING
1180	OPEN	"WHITNEY AVE, 221"	[]	6511	CEN	-72.919795	"WHITNEY AVE, 221"	[]	"WHITNEY AVENUE, 221"	"NEW HAVEN, CT"	WHIT221	41.316733	221 WHITNEY AVENUE	ADMIN
1184	OPEN	WHITNEY AV PARK GAR VIS	[]	6511	CEN	-72.919684	"WHITNEY AVE, 221R"	[]	"WHITNEY AVENUE, 221R"	"NEW HAVEN, CT"	WAPGV	41.316574	221R WHITNEY AVENUE	PARKING
1185	OPEN	WHITNEY AVE PARK GAR	[]	6511	CEN	-72.919412	"WHITNEY AVE, 221R"	[]	"WHITNEY AVENUE, 221R"	"NEW HAVEN, CT"	WAPG	41.316544	221R WHITNEY AVENUE	PARKING
1200	OPEN	FOUNDERS HALL	JOHN P. NORTON CARR HSE; YERKES LABS; PROSP. HILL DAY SCH; YALE OBSERV.	6511	CEN	-72.924257	"PROSPECT ST, 135"	P Norton Carriage Hs	"PROSPECT STREET, 135"	"NEW HAVEN, CT"	FND	41.31569	135 PROSPECT STREET	ACADEMIC
1205	OPEN	WATSON CENTER	[]	6511	CEN	-72.92372	"SACHEM ST, 60"	[]	"SACHEM STREET, 60"	"NEW HAVEN, CT"	WTS	41.315756	60 SACHEM STREET	ACADEMIC
1610	OPEN	"TEMPLE ST, 432"	[]	6511	CEN	-72.922683	"TEMPLE ST, 432"	[]	"TEMPLE STREET, 432"	"NEW HAVEN, CT"	TEMP432	41.312822	432 TEMPLE STREET	ACADEMIC
1835	OPEN	"CHURCH ST, 246"	[]	6510	CEN	-72.923337	"CHURCH ST, 246"	[]	"CHURCH STREET, 246"	"NEW HAVEN, CT"	CHUR246	41.310002	246 CHURCH STREET	ADMIN
2145	OPEN	EZRA STILES COLLEGE	[]	6511	CEN	-72.930846	"YORK ST, 302"	[]	"YORK STREET, 302"	"NEW HAVEN, CT"	ES	41.312485	302 YORK STREET	DORMITORY
2301	OPEN	HOWE ST GARAGE	[]	6511	CEN	-72.934817	"HOWE ST, 67"	[]	"HOWE STREET, 67-81"	"NEW HAVEN, CT"	HSG	41.309886	67-81 HOWE STREET	PARKING
2304	OPEN	"EDGEWOOD AVE, 32-36"	SCULPTURE BUILDING - SCULPT	6511	CEN	-72.934021	"EDGEWOOD AVE, 32"	[]	"EDGEWOOD AVENUE, 32-36"	"NEW HAVEN, CT"	EDGW32	41.310234	32-36 EDGEWOOD AVENUE	ACADEMIC
2305	OPEN	"EDGEWOOD AVE, 28"	[]	6511	CEN	-72.933834	"EDGEWOOD AVE, 28"	[]	"EDGEWOOD AVENUE, 28"	"NEW HAVEN, CT"	EDGW28	41.310227	28 EDGEWOOD AVENUE	OPERATIONS
2345	OPEN	"CHAPEL ST, 1201"	[]	6511	CEN	-72.934321	"CHAPEL ST, 1201"	[]	"CHAPEL STREET, 1201"	"NEW HAVEN, CT"	CHAP1201	41.30929	1201 CHAPEL STREET	ADMIN
2346	OPEN	LOT 129-AYA 1201 CHAPEL	[]	6511	CEN	[]	"CHAPEL ST, 1201"	[]	"CHAPEL STREET, 1201"	"NEW HAVEN, CT"	LOT 129	[]	1201 CHAPEL STREET	PARKING
2347	OPEN	"CHAPEL ST, 1201 CAR HSE"	[]	6511	CEN	[]	"CHAPEL ST, 1201"	[]	"CHAPEL STREET, 1201"	"NEW HAVEN, CT"	CH1201CH	[]	1201 CHAPEL STREET	ADMIN
2353	OPEN	"CHAPEL ST, 1221"	[]	6511	CEN	[]	"CHAPEL ST, 1221"	[]	"CHAPEL STREET, 1221"	"NEW HAVEN, CT"	CHAP1221	[]	1221 CHAPEL STREET	ACADEMIC
2403	OPEN	ARNOLD HALL	[]	6511	CEN	-72.93145	"ELM ST, 304"	[]	"ELM STREET, 304"	"NEW HAVEN, CT"	ARN	41.311041	304 ELM STREET	DORMITORY
1215	OPEN	STEINBACH HALL	JOHN P. NORTON HOUSE	6511	CEN	-72.923441	"HILLHOUSE AVE, 52"	John P. Norton Hs	"HILLHOUSE AVENUE, 52"	"NEW HAVEN, CT"	STN	41.315431	52 HILLHOUSE AVENUE	ACADEMIC
1220	OPEN	"HILLHOUSE AVE,46"	AARON N. SKINNER HSE; TROWBRIDGE HSE	6511	CEN	-72.923594	"HILLHOUSE AVE, 46"	Aaron N. Skinner Hs; Skinner Trowbridge Hs	"HILLHOUSE AVENUE, 46"	"NEW HAVEN, CT"	HLH46	41.315049	46 HILLHOUSE AVENUE	ACADEMIC
1225	OPEN	"HILLHOUSE AVE,38"	HENRY FOWLER ENGLISH HSE	6511	CEN	-72.923746	"HILLHOUSE AVE, 38"	Henry Fowler English Hs	"HILLHOUSE AVENUE, 38"	"NEW HAVEN, CT"	HLH38	41.314576	38 HILLHOUSE AVENUE	ADMIN
1230	OPEN	"HILLHOUSE AVE,30"	[]	6511	CEN	-72.923937	"HILLHOUSE AVE, 30"	Edwin S. Wheeler Hs	"HILLHOUSE AVENUE, 30"	"NEW HAVEN, CT"	HLH30	41.314053	30 HILLHOUSE AVENUE	ACADEMIC
1235	OPEN	"HILLHOUSE AVE,28"	CHARLES HENRY FARNAM HOUSE	6511	CEN	-72.923997	"HILLHOUSE AVE, 28"	Edwin S. Wheeler Hs	"HILLHOUSE AVENUE, 28"	"NEW HAVEN, CT"	HLH28	41.313861	28 HILLHOUSE AVENUE	ACADEMIC
1240	OPEN	"TRUMBULL ST, 87"	BENJAMIN SILLIMAN HSE	6511	CEN	-72.924351	"TRUMBULL ST, 87"	Benjamin Silliman Hs	"TRUMBULL STREET, 87"	"NEW HAVEN, CT"	TRUM87	41.313858	87 TRUMBULL STREET	ACADEMIC
4005	OPEN	LIBRARY SHELVING FAC	[]	6517	CT	-72.921647	"LEEDER HILL DR, 147"	[]	"LEEDER HILL DRIVE, 147"	"HAMDEN, CT"	LSF	41.345382	147 LEEDER HILL DRIVE	LIBRARY
4007	OPEN	HORSE ISLAND	[]	6405	CT	[]	"THIMBLE ISLANDS, "	[]	"THIMBLE ISLANDS,"	"BRANFORD, CT"	HORSE	[]	THIMBLE ISLANDS	ACADEMIC
1040	OPEN	KLINE GEOLOGY LAB	[]	6511	CEN	-72.92106	"WHITNEY AVE, 210"	[]	"WHITNEY AVENUE, 210"	"NEW HAVEN, CT"	KGL	41.316541	210 WHITNEY AVENUE	ACADEMIC
1045	OPEN	PEABODY MUSEUM	[]	6511	CEN	-72.921142	"WHITNEY AVE, 170"	Peabody Museum of Natural History	"WHITNEY AVENUE, 170"	"NEW HAVEN, CT"	PM	41.315971	170 WHITNEY AVENUE	LIBRARY
1049	OPEN	ENVIRONMTL SCIENCE CTR	[]	6511	CEN	-72.921769	"SACHEM ST, 21"	[]	"SACHEM STREET, 21"	"NEW HAVEN, CT"	ESC	41.316078	21 SACHEM STREET	ACADEMIC
1055	OPEN	OSBORN MEMORIAL LAB	[]	6511	CEN	-72.923796	"PROSPECT ST, 165"	[]	"PROSPECT STREET, 165"	"NEW HAVEN, CT"	OML	41.316402	165 PROSPECT STREET	ACADEMIC
1070	OPEN	SAGE-BOWERS HALL	[]	6511	CEN	-72.923697	"PROSPECT ST, 205"	[]	"PROSPECT STREET, 205"	"NEW HAVEN, CT"	SB	41.317156	205 PROSPECT STREET	ACADEMIC
1075	OPEN	SLOANE PHYSICS LAB	[]	6511	CEN	-72.923108	"PROSPECT ST, 217"	Sloane Physics Laboratory	"PROSPECT STREET, 217"	"NEW HAVEN, CT"	SPL	41.317345	217 PROSPECT STREET	ACADEMIC
3843	OPEN	OEC - CLUB HOUSE SILO	[]	6333	CT	[]	"SCOTT RD, 124"	[]	"SCOTT ROAD, 124"	"EAST LYME, CT"	OEC-CHS	[]	124 SCOTT ROAD	ATHLETICS
3844	OPEN	OEC - MILK HOUSE	[]	6333	CT	[]	"SCOTT RD, 124"	[]	"SCOTT ROAD, 124"	"EAST LYME, CT"	OEC-MH	[]	124 SCOTT ROAD	ATHLETICS
3845	OPEN	OEC - OLD SCHOOL HOUSE	[]	6333	CT	[]	"SCOTT RD, 124"	[]	"SCOTT ROAD, 124"	"EAST LYME, CT"	OEC-OSH	[]	124 SCOTT ROAD	ATHLETICS
3846	OPEN	OEC - MAIN GARAGE	[]	6333	CT	[]	"SCOTT RD, 124"	[]	"SCOTT ROAD, 124"	"EAST LYME, CT"	OEC-GAR	[]	124 SCOTT ROAD	ATHLETICS
3847	OPEN	OEC - FARM BLDGS	[]	6333	CT	[]	"SCOTT RD, 124"	[]	"SCOTT ROAD, 124"	"EAST LYME, CT"	OEC-FB	[]	124 SCOTT ROAD	ATHLETICS
3898	OPEN	GUILFORD BIO FS GARAGE	[]	6437	CT	[]	"OLD QUARRY RD, 276"	[]	"OLD QUARRY ROAD, 276"	"GUILFORD, CT"	GBFSGAR	[]	276 OLD QUARRY ROAD	ACADEMIC
4002	OPEN	MURTHA INDUSTRIAL PARK	[]	6403	CT	[]	MURTHA INDUSTRIAL PARK	[]	MURTHA INDUSTRIAL PARK	"BEACON FALLS, CT"	MURTHA	[]	MURTHA INDUSTRIAL PARK	ADMIN
4003	OPEN	AMITY AN FARM CARE RES	[]	6524	CT	-72.999511	"OLD AMITY RD, 48"	[]	"OLD AMITY ROAD, 48"	"BETHANY, CT"	AARFCR	41.402139	48 OLD AMITY ROAD	ACADEMIC
915	OPEN	"PROSPECT ST,210"	[]	6511	CEN	-72.924276	"PROSPECT ST, 210"	Prof Wm Trowbridge Hs	"PROSPECT STREET, 210"	"NEW HAVEN, CT"	PROS210	41.317557	210 PROSPECT STREET	ACADEMIC
925	OPEN	INGALLS RINK	[]	6511	CEN	-72.925103	"SACHEM ST, 73"	[]	"SACHEM STREET, 73"	"NEW HAVEN, CT"	IR	41.316764	73 SACHEM STREET	ATHLETICS
1080	OPEN	KLINE BIOLOGY TOWER	[]	6511	CEN	-72.922686	"PROSPECT ST, 219"	[]	"PROSPECT STREET, 219"	"NEW HAVEN, CT"	KBT	41.317218	219 PROSPECT STREET	ACADEMIC
1085	OPEN	STERLING CHEM LAB	[]	6511	CEN	-72.922934	"PROSPECT ST, 225"	[]	"PROSPECT STREET, 225"	"NEW HAVEN, CT"	SCL	41.318237	225 PROSPECT STREET	ACADEMIC
1090	OPEN	KLINE CHEMISTRY LAB	[]	6511	CEN	-72.922714	"PROSPECT ST, 255"	[]	"PROSPECT STREET, 255"	"NEW HAVEN, CT"	KCL	41.318843	255 PROSPECT STREET	ACADEMIC
1095	OPEN	"EDWARDS ST, 380"	"PROSPECT STREET, 285"	6511	CEN	-72.922393	"EDWARDS ST, 380"	[]	"EDWARDS STREET, 380"	"NEW HAVEN, CT"	EDW380	41.319814	380 EDWARDS STREET	ACADEMIC
1100	OPEN	HORCHOW HALL	PELATIAH PERIT HOUSE	6511	CEN	-72.922403	"HILLHOUSE AVE, 55"	Horchow Hall	"HILLHOUSE AVENUE, 55"	"NEW HAVEN, CT"	HRCH	41.31543	55 HILLHOUSE AVENUE	ACADEMIC
1250	OPEN	"PROSPECT ST, 77"	[]	6511	CEN	-72.924613	"PROSPECT ST,  77"	Wolf's Head	"PROSPECT STREET,  77"	"NEW HAVEN, CT"	PROS077	41.313967	77 PROSPECT STREET	ACADEMIC
1255	OPEN	"LUCE HALL, HENRY R."	[]	6511	CEN	-72.924341	"HILLHOUSE AVE, 34"	[]	"HILLHOUSE AVENUE, 34"	"NEW HAVEN, CT"	LUCE	41.314402	34 HILLHOUSE AVENUE	ACADEMIC
1257	OPEN	LOT  38-ROSENKRANZ NRTH	[]	6511	CEN	-72.924228	"PROSPECT ST, 85"	[]	"PROSPECT STREET,  85"	"NEW HAVEN, CT"	LOT 38	41.315274	85 PROSPECT STREET	PARKING
1261	OPEN	ROSENKRANZ HALL	[]	6511	CEN	-72.924519	"PROSPECT ST, 115"	[]	"PROSPECT STREET, 115"	"NEW HAVEN, CT"	RKZ	41.314669	115 PROSPECT STREET	ACADEMIC
1290	OPEN	GROUNDS MAINT GARAGE 2	[]	6511	CEN	-72.924338	"PROSPECT ST, 131"	[]	"PROSPECT STREET, 131"	"NEW HAVEN, CT"	GMG2	41.315442	131 PROSPECT STREET	OPERATIONS
1612	OPEN	"TEMPLE ST, 434"	[]	6511	CEN	-72.922632	"TEMPLE ST, 434"	[]	"TEMPLE STREET, 434"	"NEW HAVEN, CT"	TEMP434	41.312902	434 TEMPLE STREET	ACADEMIC
1615	OPEN	HELEN HADLEY HALL	[]	6511	CEN	-72.923042	"TEMPLE ST, 420"	[]	"TEMPLE STREET, 420"	"NEW HAVEN, CT"	HHH	41.312524	420 TEMPLE STREET	DORMITORY
1620	OPEN	DOW HALL	"TEMPLE ST, 370; VERNON HALL"	6511	CEN	-72.923886	"TEMPLE ST, 370"	Vernon Hall	"TEMPLE STREET, 370"	"NEW HAVEN, CT"	DOW	41.311315	370 TEMPLE STREET	ACADEMIC
1625	OPEN	WARNER HOUSE	CLOISTER HOUSE	6511	CEN	-72.924115	"HILLHOUSE AVE,  1"	Cloister Hall [Book & Snake]	"HILLHOUSE AVENUE,  1"	"NEW HAVEN, CT"	WARNER	41.311377	1 HILLHOUSE AVENUE	ADMIN
1630	OPEN	MASON LAB	[]	6511	CEN	-72.923669	"HILLHOUSE AVE,  9"	[]	"HILLHOUSE AVENUE,  9"	"NEW HAVEN, CT"	ML	41.312108	9 HILLHOUSE AVENUE	ACADEMIC
1635	OPEN	"HILLHOUSE AVE,15"	"YORK HALL, ALPHA DELTA PHI"	6511	CEN	-72.923706	"HILLHOUSE AVE, 15"	York Hall; Alpha Delta Phi - Sheff Student Society Hall]	"HILLHOUSE AVENUE, 15"	"NEW HAVEN, CT"	HLH15	41.31241	15 HILLHOUSE AVENUE	LIBRARY
1640	OPEN	"HILLHOUSE AVE,17"	UNIVERSITY HEALTH SERVICES CENTER	6511	CEN	-72.923576	"HILLHOUSE AVE, 17"	[]	"HILLHOUSE AVENUE, 17"	"NEW HAVEN, CT"	HLH17	41.312781	17 HILLHOUSE AVENUE	ACADEMIC
1642	OPEN	LOT  30 - 17 HLH	[]	6511	CEN	-72.923246	"HILLHOUSE AVE, 17"	[]	"HILLHOUSE AVENUE, 17"	"NEW HAVEN, CT"	LOT 30	41.313168	17 HILLHOUSE AVENUE	PARKING
1705	OPEN	WHITNEY GROVE SQUARE	[]	6510	CEN	-72.92284	"WHITNEY AVE,   2"	[]	"WHITNEY AVENUE,   2"	"NEW HAVEN, CT"	WGS	41.310763	2 WHITNEY AVENUE	ADMIN
1715	OPEN	ROSENFELD HALL	ST. ELMO HALL	6511	CEN	-72.923403	"GROVE ST, 109"	St Elmo's	"GROVE STREET, 109-111"	"NEW HAVEN, CT"	RSN	41.311047	109-111 GROVE STREET	DORMITORY
3840	OPEN	OEC - CABIN 8	[]	6333	CT	[]	"UPPER PATTAGANSETT RD, 291"	[]	"UPPER PATTAGANSETT RD,291"	"EAST LYME, CT"	OEC-C8	[]	291 UPPER PATTAGANSETT RD	ATHLETICS
3841	OPEN	OEC - CABINS 9 & 10	[]	6333	CT	[]	"UPPER PATTAGANSETT RD, 291"	[]	"UPPER PATTAGANSETT RD,291"	"EAST LYME, CT"	OEC-C9+10	[]	291 UPPER PATTAGANSETT RD	ATHLETICS
545	OPEN	MBG GREENHOUSE 2	[]	6511	CEN	-72.925239	"MANSFIELD ST, 265"	[]	"MANSFIELD STREET, 265"	"NEW HAVEN, CT"	MBG2	41.322371	265 MANSFIELD STREET	ACADEMIC
550	OPEN	"GREENHOUSE, GOVT."	[]	6511	CEN	-72.925293	"MANSFIELD ST, 229"	[]	"MANSFIELD STREET, 229"	"NEW HAVEN, CT"	GH-GOVT	41.322487	229 MANSFIELD STREET	ACADEMIC
1837	OPEN	LOT  52 -53 WALL EAST	[]	6511	CEN	[]	"CHURCH ST, 236"	[]	"CHURCH STREET, 236"	"NEW HAVEN, CT"	LOT 52	[]	236 CHURCH STREET	PARKING
1840	OPEN	"WALL ST, 53"	TRINITY CHURCH PARISH HSE	6511	CEN	-72.923678	"WALL ST, 53"	Trinity Church Parish Hs	"WALL STREET,  53"	"NEW HAVEN, CT"	WALL53	41.309813	53 WALL STREET	ACADEMIC
1900	OPEN	STOECKEL HALL	[]	6511	CEN	-72.926024	"COLLEGE ST, 469"	[]	"COLLEGE STREET, 469"	"NEW HAVEN, CT"	STOECK	41.310498	469 COLLEGE STREET	ACADEMIC
1905	OPEN	"WALL ST, 82-90"	[]	6511	CEN	-72.925617	"WALL ST, 82"	[]	"WALL STREET,  82-90"	"NEW HAVEN, CT"	WALL82	41.310348	82-90 WALL STREET	ACADEMIC
1914	OPEN	"WALL ST, 66 GARAGE"	[]	6511	CEN	[]	"WALL ST, 66"	[]	"WALL STREET,  66"	"NEW HAVEN, CT"	WALL66G	[]	66 WALL STREET	HOUSING
1920	OPEN	"WALL ST, 66"	JOHN A. LYNDE HOUSE	6511	CEN	-72.924781	"WALL ST, 66"	John A. Lynde Hs	"WALL STREET,  66"	"NEW HAVEN, CT"	WALL66	41.310013	66 WALL STREET	HOUSING
1925	OPEN	"TEMPLE ST, 320"	[]	6511	CEN	-72.924908	"TEMPLE ST, 320"	Rev Jedidiah Morse Hs	"TEMPLE STREET, 320"	"NEW HAVEN, CT"	TEMP320	41.309848	320 TEMPLE STREET	ACADEMIC
1930	OPEN	"TEMPLE ST, 302"	[]	6511	CEN	-72.925315	"TEMPLE ST, 302"	Sanford Hs; United Church Chapel	"TEMPLE STREET, 302"	"NEW HAVEN, CT"	TEMP302	41.309388	302 TEMPLE STREET	ADMIN
1935	OPEN	"ELM ST, 143"	RALPH INGERSOLL HOUSE	6511	CEN	-72.925455	"ELM ST, 143"	[]	"ELM STREET, 143"	"NEW HAVEN, CT"	ELM143	41.309067	143 ELM STREET	ACADEMIC
2408	OPEN	"ELM ST, 272 GRAD HOUS"	[]	6511	CEN	[]	"ELM ST, 272"	[]	"ELM STREET, 272"	"NEW HAVEN, CT"	ELM272GH	[]	272 ELM STREET	APARTMENT
2410	OPEN	"YORK ST, 264"	[]	6511	CEN	-72.929856	"YORK ST, 264"	[]	"YORK STREET, 264"	"NEW HAVEN, CT"	YORK264	41.311175	264 YORK STREET	REAL ESTATE
2411	OPEN	"YORK ST, 266-268/ELM, 254"	[]	6511	CEN	-72.930388	"YORK ST, 266"	[]	"YORK STREET, 266-268"	"NEW HAVEN, CT"	YORK266	41.310541	266-268 YORK STREET	REAL ESTATE
3837	OPEN	OEC - CABINS 3 & 4	[]	6333	CT	[]	"UPPER PATTAGANSETT RD, 291"	[]	"UPPER PATTAGANSETT RD,291"	"EAST LYME, CT"	OEC-C3+4	[]	291 UPPER PATTAGANSETT RD	ATHLETICS
3838	OPEN	OEC - CABINS 5 & 6	[]	6333	CT	[]	"UPPER PATTAGANSETT RD, 291"	[]	"UPPER PATTAGANSETT RD,291"	"EAST LYME, CT"	OEC-C5+6	[]	291 UPPER PATTAGANSETT RD	ATHLETICS
2515	OPEN	WEIR HALL	[]	6511	CEN	-72.930364	"HIGH ST, 66"	[]	"HIGH STREET, 66"	"NEW HAVEN, CT"	WEIR	41.30879	66 HIGH STREET	DORMITORY
2520	OPEN	YALE U. ART GALLERY	[]	6510	CEN	-72.930815	"CHAPEL ST, 1111"	the New Art Museum	"CHAPEL STREET, 1111"	"NEW HAVEN, CT"	YUAG	41.308313	1111 CHAPEL STREET	LIBRARY
2600	OPEN	LANMAN-WRIGHT HALL	[]	6511	CEN	-72.928692	"ELM ST, 206"	[]	"ELM STREET, 206"	"NEW HAVEN, CT"	LWR	41.309735	206 ELM STREET	DORMITORY
2605	OPEN	"DURFEE HALL,BRADFORD"	[]	6511	CEN	-72.928056	"ELM ST, 198"	[]	"ELM STREET, 198"	"NEW HAVEN, CT"	D	41.309622	198 ELM STREET	DORMITORY
2783	OPEN	LOT  80T - 333 CROWN	[]	6511	CEN	-72.932817	"CROWN ST, 333"	[]	"CROWN STREET, 333"	"NEW HAVEN, CT"	LOT 80T	41.307526	333 CROWN STREET	PARKING
2786	OPEN	"CROWN ST, 341-347"	[]	6511	CEN	-72.933226	"CROWN ST, 341"	[]	"CROWN STREET, 341-347"	"NEW HAVEN, CT"	CRWN341	41.307879	341-347 CROWN STREET	ADMIN
2791	OPEN	"CROWN ST, 353"	[]	6511	CEN	-72.933527	"CROWN ST, 353"	[]	"CROWN STREET, 353"	"NEW HAVEN, CT"	CRWN353	41.307892	353 CROWN STREET	ACADEMIC
2902	OPEN	"COLLEGE ST, 265"	[]	6510	CEN	-72.928669	"COLLEGE ST, 265"	[]	"COLLEGE STREET, 265"	"NEW HAVEN, CT"	COLL265	41.307154	265 COLLEGE STREET	RESIDENTIAL
2961	OPEN	"CHURCH ST, 109"	[]	6510	CEN	[]	"CHURCH ST, 109"	[]	"CHURCH STREET, 109"	"NEW HAVEN, CT"	CHUR109	[]	109 CHURCH STREET	RESIDENTIAL
2962	OPEN	"CHURCH ST,  55"	[]	6510	CEN	-72.926078	"CHURCH ST, 55"	[]	"CHURCH STREET,  55"	"NEW HAVEN, CT"	CHUR055	41.305054	55 CHURCH STREET	ACADEMIC
3830	OPEN	OEC - DINING HALL	ECKLE HALL	6333	CT	[]	"UPPER PATTAGANSETT RD, 291"	[]	"UPPER PATTAGANSETT RD,291"	"EAST LYME, CT"	OEC-DH	[]	291 UPPER PATTAGANSETT RD	ATHLETICS
2615	OPEN	"FARNAM HALL, HENRY"	[]	6511	CEN	-72.927711	"COLLEGE ST, 380"	[]	"COLLEGE STREET, 380"	"NEW HAVEN, CT"	F	41.309048	380 COLLEGE STREET	DORMITORY
2620	OPEN	"LAWRANCE HALL,THOMAS"	[]	6511	CEN	-72.927996	"COLLEGE ST, 358"	[]	"COLLEGE STREET, 358"	"NEW HAVEN, CT"	L	41.308676	358 COLLEGE STREET	DORMITORY
2625	OPEN	PHELPS HALL	[]	6511	CEN	-72.928206	"COLLEGE ST, 344"	[]	"COLLEGE STREET, 344"	"NEW HAVEN, CT"	PHELPS	41.308412	344 COLLEGE STREET	ACADEMIC
2630	OPEN	"WELCH HALL,HARMANUS"	[]	6511	CEN	-72.928369	"COLLEGE ST, 330"	[]	"COLLEGE STREET, 330"	"NEW HAVEN, CT"	W	41.308147	330 COLLEGE STREET	DORMITORY
2635	OPEN	"BINGHAM HALL,CHARLES"	[]	6511	CEN	-72.928737	"COLLEGE ST, 300"	[]	"COLLEGE STREET, 300"	"NEW HAVEN, CT"	BM	41.30772	300 COLLEGE STREET	DORMITORY
2750	OPEN	"CROWN ST, 270"	[]	6511	CEN	-72.93079	"CROWN ST, 270"	[]	"CROWN STREET, 270"	"NEW HAVEN, CT"	CRWN270	41.306341	270 CROWN STREET	ADMIN
2755	OPEN	LOT  81 -297 CROWN N	[]	6511	CEN	-72.931365	"CROWN ST, 299"	[]	"CROWN STREET, 299"	"NEW HAVEN, CT"	LOT 81	41.306874	299 CROWN STREET	PARKING
2770	OPEN	GREEN HALL	"CHAPEL ST, 1156"	6511	CEN	-72.932343	"CHAPEL ST, 1156"	[]	"CHAPEL STREET, 1156"	"NEW HAVEN, CT"	GRN	41.308741	1156 CHAPEL STREET	ACADEMIC
3832	OPEN	OEC - CLUB HOUSE	[]	6333	CT	[]	"SCOTT RD, 124"	[]	"SCOTT ROAD, 124"	"EAST LYME, CT"	OEC-CH	[]	124 SCOTT ROAD	ATHLETICS
3833	OPEN	OEC - RECREATION CABIN	[]	6333	CT	[]	"UPPER PATTAGANSETT RD, 291"	[]	"UPPER PATTAGANSETT RD,291"	"EAST LYME, CT"	OEC-RC	[]	291 UPPER PATTAGANSETT RD	ATHLETICS
3834	OPEN	OEC - CARETAKERS HOUSE	[]	6333	CT	[]	"SCOTT RD, 124"	[]	"SCOTT ROAD, 124"	"EAST LYME, CT"	OEC-HSE	[]	124 SCOTT ROAD	ATHLETICS
3835	OPEN	OEC - HOPKINS PAVILION	[]	6333	CT	[]	"UPPER PATTAGANSETT RD, 291"	[]	"UPPER PATTAGANSETT RD,291"	"EAST LYME, CT"	OEC-HP	[]	291 UPPER PATTAGANSETT RD	ATHLETICS
2645	OPEN	"MCCLELLAN HALL,EDWIN"	[]	6510	CEN	-72.929339	"CHAPEL ST, 1037"	[]	"CHAPEL STREET, 1037"	"NEW HAVEN, CT"	EM	41.30827	1037 CHAPEL STREET	DORMITORY
2650	OPEN	VANDERBILT HALL	[]	6510	CEN	-72.929339	"CHAPEL ST, 1035"	[]	"CHAPEL STREET, 1035"	"NEW HAVEN, CT"	V	41.30788	1035 CHAPEL STREET	DORMITORY
2655	OPEN	STREET HALL	YALE SCHOOL OF FINE ARTS	6510	CEN	-72.92993	"CHAPEL ST, 1071"	Street Hall (School of Art)	"CHAPEL STREET, 1071"	"NEW HAVEN, CT"	ST	41.308026	1071 CHAPEL STREET	LIBRARY
2660	OPEN	LINSLY-CHITTENDEN	"LINSLY HALL, CHITTENDEN HALL"	6511	CEN	-72.929557	"HIGH ST, 63"	[]	"HIGH STREET, 63"	"NEW HAVEN, CT"	LC	41.308569	63 HIGH STREET	ACADEMIC
2665	OPEN	DWIGHT HALL & CHAPEL	YALE COLLEGE LIBRARY	6511	CEN	-72.929303	"HIGH ST, 67"	[]	"HIGH STREET, 67"	"NEW HAVEN, CT"	DW	41.308927	67 HIGH STREET	ASSEMBLY
2670	OPEN	OLD CAMPUS	[]	6510	CEN	-72.928578	"COLLEGE ST, 344"	[]	"COLLEGE STREET, 344"	"NEW HAVEN, CT"	OLDCAMP	41.308913	344 COLLEGE STREET	[]
2700	OPEN	YALE REPERTORY THEAT	CALVARY BAPTIST CHURCH	6510	CEN	-72.931607	"CHAPEL ST, 1120"	Calvary Baptist Church	"CHAPEL STREET, 1120"	"NEW HAVEN, CT"	YRT	41.308064	1120 CHAPEL STREET	ASSEMBLY
2730	OPEN	"CROWN ST, 305"	[]	6511	CEN	-72.931966	"CROWN ST, 305"	[]	"CROWN STREET, 305"	"NEW HAVEN, CT"	CRWN305	41.307172	305 CROWN STREET	ACADEMIC
2733	OPEN	"YORK ST, 100"	[]	6511	CEN	-72.933233	"YORK ST, 100"	[]	"YORK STREET, 100"	"NEW HAVEN, CT"	YORK100	41.306953	100 YORK STREET	ACADEMIC
2735	OPEN	YORK-CROWN APTS 313-319	[]	6511	CEN	-72.93227	"CROWN ST, 313"	[]	"CROWN STREET, 313-319"	"NEW HAVEN, CT"	YKCRWNA	41.307251	313-319 CROWN STREET	APARTMENT
2737	OPEN	"YORK ST, 123 PARKING"	[]	6511	CEN	[]	"YORK ST, 123"	[]	"YORK STREET, 123"	"NEW HAVEN, CT"	YORK123P	[]	123 YORK STREET	PARKING
2739	OPEN	"YORK ST, 129"	[]	6511	CEN	-72.932635	"YORK ST, 129"	[]	"YORK STREET, 129"	"NEW HAVEN, CT"	YORK129	41.306669	129 YORK STREET	ACADEMIC
2740	OPEN	YORK-CROWN APTS 139-143	[]	6511	CEN	-72.932194	"YORK ST, 139"	[]	"YORK STREET, 139-143"	"NEW HAVEN, CT"	YKCRWNB	41.307441	139-143 YORK STREET	APARTMENT
2744	OPEN	"YORK ST, 146"	[]	6511	CEN	-72.932524	"YORK ST, 146"	[]	"YORK STREET, 146"	"NEW HAVEN, CT"	YORK146	41.307605	146 YORK STREET	VACANT
3743	OPEN	DEWITT FAMILY FIELD	[]	6515	ATH	-72.968611	"CENTRAL AVE, 70"	[]	"CENTRAL AVENUE, 70"	"NEW HAVEN, CT"	DEWITTFD	41.312528	70 CENTRAL AVENUE	ATHLETICS
3744	OPEN	CAROL ROBERTS FIELD HSE	[]	6515	ATH	[]	"CENTRAL AVE, 70"	[]	"CENTRAL AVENUE, 70"	"NEW HAVEN, CT"	CRFH	[]	70 CENTRAL AVENUE	ATHLETICS
3745	OPEN	INTRAMURAL FIELD D	[]	6515	ATH	-72.967017	"CENTRAL AVE, 80"	[]	"CENTRAL AVENUE, 80"	"NEW HAVEN, CT"	FIELDD	41.313543	80 CENTRAL AVENUE	ATHLETICS
3800	OPEN	GOLF  COURSE - YALE	[]	6515	ATH	-72.985152	"CONRAD DR, 200"	[]	"CONRAD DRIVE, 200"	"NEW HAVEN, CT"	GCOURSE	41.318497	200 CONRAD DRIVE	ATHLETICS
3801	OPEN	GOLF C DRIVING RNG SHED	[]	6515	ATH	[]	"CONRAD DR, 200"	[]	"CONRAD DRIVE, 200"	"NEW HAVEN, CT"	GCDRSHED	[]	200 CONRAD DRIVE	ATHLETICS
3802	OPEN	GOLF C MAINT MECH SHED	[]	6515	ATH	[]	"CONRAD DR, 200"	[]	"CONRAD DRIVE, 200"	"NEW HAVEN, CT"	GCMMSHED	[]	200 CONRAD DRIVE	ATHLETICS
3803	OPEN	GOLF C MAINT STR SHED1	[]	6515	ATH	[]	"CONRAD DR, 200"	[]	"CONRAD DRIVE, 200"	"NEW HAVEN, CT"	GCMSSHD1	[]	200 CONRAD DRIVE	ATHLETICS
3804	OPEN	GOLF C MAINT STR SHED2	[]	6515	ATH	[]	"CONRAD DR, 200"	[]	"CONRAD DRIVE, 200"	"NEW HAVEN, CT"	GCMSSHD2	[]	200 CONRAD DRIVE	ATHLETICS
3805	OPEN	GOLF  COURSE CLUB HSE	PROSPECT HILL CLUB HOUSE	6515	ATH	-72.987562	"CONRAD DR, 200"	[]	"CONRAD DRIVE, 200"	"NEW HAVEN, CT"	GCCLUB	41.315971	200 CONRAD DRIVE	ATHLETICS
3806	OPEN	GOLF C CART STOR SHED	[]	6515	ATH	-72.987537	"CONRAD DR, 200"	[]	"CONRAD DRIVE, 200"	"NEW HAVEN, CT"	GCCSHED	41.315976	200 CONRAD DRIVE	ATHLETICS
3807	OPEN	GOLF C MAINT BLDG	[]	6515	ATH	-72.985494	"CONRAD DR, 200"	[]	"CONRAD DRIVE, 200"	"NEW HAVEN, CT"	GCMAINT	41.318399	200 CONRAD DRIVE	ATHLETICS
3808	OPEN	GOLF C 9TH HOLE SNACK	[]	6515	ATH	-72.986692	"CONRAD DR, 200"	[]	"CONRAD DRIVE, 200"	"NEW HAVEN, CT"	GCSNACK	41.322184	200 CONRAD DRIVE	ATHLETICS
3810	OPEN	GOLF C CART STOR BLDG	[]	6515	ATH	-72.985199	"CONRAD DR, 200"	[]	"CONRAD DRIVE, 200"	"NEW HAVEN, CT"	GCCARTS	41.318103	200 CONRAD DRIVE	ATHLETICS
3811	OPEN	GOLF C LEARNING CENTER	[]	6515	ATH	[]	"CONRAD DR, 200"	[]	"CONRAD DRIVE, 200"	"NEW HAVEN, CT"	GCLRNCTR	[]	200 CONRAD DRIVE	ATHLETICS
3815	OPEN	NATURAL PRESERVE	[]	6515	ATH	[]	"FOUNTAIN ST, 725"	[]	"FOUNTAIN STREET, 725"	"NEW HAVEN, CT"	NATPRES	[]	725 FOUNTAIN STREET	ACADEMIC
110	OPEN	CALVIN HILL DAY CARE	[]	6511	CEN	-72.920866	"HIGHLAND ST, 150"	Engine #14 Firehs - Prospect Hill	"HIGHLAND STREET, 150"	"NEW HAVEN, CT"	CHDC	41.328181	150 HIGHLAND STREET	ADMIN
120	OPEN	WHITEHALL APTS 375-385	[]	6511	CEN	-72.921398	"CANNER ST, 375"	[]	"CANNER STREET, 375-385"	"NEW HAVEN, CT"	WHITAPTA	41.325814	375-385 CANNER STREET	APARTMENT
122	OPEN	WHITEHALL APTS 405-407	[]	6511	CEN	-72.922116	"CANNER ST, 405"	[]	"CANNER STREET, 405-407"	"NEW HAVEN, CT"	WHITAPTB	41.326013	405-407 CANNER STREET	APARTMENT
124	OPEN	WHITEHALL APTS 511-521	[]	6511	CEN	-72.921995	"PROSPECT ST, 511"	[]	"PROSPECT STREET, 511-521"	"NEW HAVEN, CT"	WHITAPTC	41.326293	511-521 PROSPECT STREET	APARTMENT
125	OPEN	WHITEHALL APTS 533-543	[]	6511	CEN	-72.921649	"PROSPECT ST, 533"	[]	"PROSPECT STREET, 533-543"	"NEW HAVEN, CT"	WHITAPTD	41.32656	533-543 PROSPECT STREET	APARTMENT
126	OPEN	"PROSPECT ST,490"	[]	6511	CEN	[]	"PROSPECT ST, 490"	[]	"PROSPECT STREET, 490"	"NEW HAVEN, CT"	PROS490	[]	490 PROSPECT STREET	RESIDENTIAL
200	OPEN	CEDARHURST SCHOOL	[]	6517	CEN	-72.918663	"PROSPECT ST, 871"	[]	"PROSPECT STREET, 871"	"HAMDEN, CT"	CS	41.335173	871 PROSPECT STREET	ADMIN
245	OPEN	"ST. RONAN ST, 403"	[]	6511	CEN	[]	"ST. RONAN ST, 403"	[]	"ST. RONAN STREET, 403"	"NEW HAVEN, CT"	STRO403	[]	403 ST. RONAN STREET	RESIDENTIAL
300	OPEN	"EDWARDS ST, 309"	EDWARD M. BRADLEY HOUSE	6511	CEN	-72.920017	"EDWARDS ST, 309"	[]	"EDWARDS STREET, 309"	"NEW HAVEN, CT"	EDW309	41.319989	309 EDWARDS STREET	ACADEMIC
302	OPEN	"ST. RONAN ST, 175"	[]	6511	CEN	-72.919598	"ST RONAN ST, 175"	[]	"ST. RONAN STREET, 175"	"NEW HAVEN, CT"	STRO175	41.320271	175 ST. RONAN STREET	ACADEMIC
303	OPEN	LOT  65 -309 EDWARDS N	[]	6511	CEN	-72.919838	"ST RONAN ST, 175"	[]	"ST. RONAN STREET, 175"	"NEW HAVEN, CT"	LOT 65	41.32025	175 ST. RONAN STREET	PARKING
304	OPEN	LOT  65V-309 EDWARDS N	[]	6511	CEN	-72.91987	"ST. RONAN ST, 175"	[]	"ST. RONAN STREET, 175"	"NEW HAVEN, CT"	LOT 65V	41.320242	175 ST. RONAN STREET	PARKING
305	OPEN	"ST. RONAN ST, 160"	[]	6511	CEN	[]	"ST RONAN ST, 160"	[]	"ST. RONAN STREET, 160"	"NEW HAVEN, CT"	STRO160	[]	160 ST. RONAN STREET	ACADEMIC
306	OPEN	LOT  66 - 160 ST RONAN	[]	6511	CEN	[]	"ST RONAN ST, 160"	[]	"ST. RONAN STREET, 160"	"NEW HAVEN, CT"	LOT 66	[]	160 ST. RONAN STREET	PARKING
400	OPEN	FISHER HALL (DIV)	[]	6511	CEN	-72.920165	"CANNER ST, 352"	[]	"CANNER STREET, 352"	"NEW HAVEN, CT"	FISHER	41.325097	352 CANNER STREET	DORMITORY
403	OPEN	LOT  11N - DIV SCH APTS	[]	6511	CEN	[]	"CANNER ST, 360"	[]	"CANNER STREET, 360"	"NEW HAVEN, CT"	LOT 11N	[]	360 CANNER STREET	PARKING
405	OPEN	BELLAMY HALL (DIV)	[]	6511	CEN	-72.920499	"CANNER ST, 354"	[]	"CANNER STREET, 354"	"NEW HAVEN, CT"	BELLAMY	41.324626	354 CANNER STREET	DORMITORY
410	OPEN	CURTIS HALL (DIV)	[]	6511	CEN	-72.91994	"CANNER ST, 350"	[]	"CANNER STREET, 350"	"NEW HAVEN, CT"	CURTIS	41.324559	350 CANNER STREET	DORMITORY
425	OPEN	FARNAM GARDENS	WILLIAM FARNAM HOUSE DEMO'D 1964; WINDYCOTT	6511	CEN	-72.922467	"PROSPECT ST, 335"	[]	"PROSPECT STREET, 335"	"NEW HAVEN, CT"	FARNGRDN	41.32057	335 PROSPECT STREET	ACADEMIC
430	OPEN	LEITNER OBSV & PLANET.	"CIA CARPENTRY SHOP, UNDERGRAD OBSERVATORY"	6511	CEN	-72.921943	"PROSPECT ST, 355"	Roth Autitorium for Culinary Inst of America	"PROSPECT STREET, 355"	"NEW HAVEN, CT"	LFOP	41.321142	355 PROSPECT STREET	ACADEMIC
434	OPEN	GREENBERG CONF CENTER	[]	6511	CEN	-72.921924	"PROSPECT ST, 391"	[]	"PROSPECT STREET, 391"	"NEW HAVEN, CT"	GBCC	41.322215	391 PROSPECT STREET	ADMIN
435	OPEN	BETTS HOUSE	"DAVIES HOUSE, JOHN M.; CULINARY INST OF AMER"	6511	CEN	-72.922121	"PROSPECT ST, 393"	John M Davies / Davies-Wallace Hs	"PROSPECT STREET, 393"	"NEW HAVEN, CT"	BETTS	41.322497	393 PROSPECT STREET	ADMIN
439	OPEN	LOT  15 - BETTS SOUTH	[]	6511	CEN	-72.922128	"PROSPECT ST, 365"	[]	"PROSPECT STREET, 365"	"NEW HAVEN, CT"	LOT 15	41.321498	365 PROSPECT STREET	PARKING
440	OPEN	STERLING DIV. QUAD.	[]	6511	CEN	-72.92169	"PROSPECT ST, 409"	[]	"PROSPECT STREET, 409"	"NEW HAVEN, CT"	SDQ	41.3234	409 PROSPECT STREET	ACADEMIC
441	OPEN	LOT  11V -DIV SCH VISIT	[]	6511	CEN	-72.922716	"PROSPECT ST, 409"	[]	"PROSPECT STREET, 409"	"NEW HAVEN, CT"	LOT 11V	41.32396	409 PROSPECT STREET	PARKING
445	OPEN	"PROSPECT ST,459"	YALE OBSERVATORY OFFICER'S HSE	6511	CEN	-72.922827	"PROSPECT ST, 459"	Robert W Wilson Hs	"PROSPECT STREET, 459"	"NEW HAVEN, CT"	PROS459	41.324252	459 PROSPECT STREET	HOUSING
446	OPEN	"PROSPECT ST,459 GARAGE"	[]	6511	CEN	-72.922665	"PROSPECT ST, 459"	[]	"PROSPECT STREET, 459"	"NEW HAVEN, CT"	PROS459G	41.324309	459 PROSPECT STREET	HOUSING
460	OPEN	LOT  11 - DIV SCH NORTH	[]	6511	CEN	-72.9217	"PROSPECT ST, 409"	[]	"PROSPECT STREET, 409"	"NEW HAVEN, CT"	LOT 11	41.324122	409 PROSPECT STREET	PARKING
462	OPEN	LOT  12V - DIV SCH EAST	[]	6511	CEN	-72.920588	"PROSPECT ST, 409"	[]	"PROSPECT STREET, 409"	"NEW HAVEN, CT"	LOT 12V	41.323217	409 PROSPECT STREET	PARKING
464	OPEN	LOT  14 - BETTS HS WEST	[]	6511	CEN	-72.922845	"PROSPECT ST, 393"	[]	"PROSPECT STREET, 393"	"NEW HAVEN, CT"	LOT 14	41.322894	393 PROSPECT STREET	PARKING
466	OPEN	LOT  14BH - BETTS NORTH	[]	6511	CEN	-72.922142	"PROSPECT ST, 393"	[]	"PROSPECT STREET, 393"	"NEW HAVEN, CT"	LOT 14BH	41.322833	393 PROSPECT STREET	PARKING
501	OPEN	"PROSPECT ST,436"	[]	6511	CEN	[]	"PROSPECT ST, 436"	[]	"PROSPECT STREET, 436"	"NEW HAVEN, CT"	PROS436	[]	436 PROSPECT STREET	RESIDENTIAL
504	OPEN	MANSFIELD APTS 291&295	[]	6511	CEN	-72.924998	"MANSFIELD ST, 291"	[]	"MANSFIELD STREET, 291 & 295"	"NEW HAVEN, CT"	MANSAPTA	41.32312	291 & 295 MANSFIELD STREET	APARTMENT
505	OPEN	MANSFIELD APTS 293&297	[]	6511	CEN	-72.924769	"MANSFIELD ST, 293"	[]	"MANSFIELD STREET, 293 & 297"	"NEW HAVEN, CT"	MANSAPTB	41.323006	293 & 297 MANSFIELD STREET	APARTMENT
506	OPEN	MANSFIELD APTS 299-301	[]	6511	CEN	-72.924685	"MANSFIELD ST, 299"	[]	"MANSFIELD STREET, 299-301"	"NEW HAVEN, CT"	MANSAPTC	41.323187	299-301 MANSFIELD STREET	APARTMENT
507	OPEN	MANSFIELD APTS 303-305	[]	6511	CEN	-72.924542	"MANSFIELD ST, 303"	[]	"MANSFIELD STREET, 303-305"	"NEW HAVEN, CT"	MANSAPTD	41.323381	303-305 MANSFIELD STREET	APARTMENT
509	OPEN	MANSFIELD APTS 307-309	[]	6511	CEN	-72.925078	"MANSFIELD ST, 307"	[]	"MANSFIELD STREET, 307-309"	"NEW HAVEN, CT"	MANSAPTE	41.323346	307-309 MANSFIELD STREET	APARTMENT
510	OPEN	ESPLANADE APTS A1-A9	[]	6511	CEN	-72.923749	"PROSPECT ST, 386"	[]	"PROSPECT STREET, 386"	"NEW HAVEN, CT"	ESPLAPTA	41.32249	386 PROSPECT STREET	APARTMENT
511	OPEN	ESPLANADE APTS B1-B8	[]	6511	CEN	-72.92406	"PROSPECT ST, 386"	[]	"PROSPECT STREET, 386"	"NEW HAVEN, CT"	ESPLAPTB	41.322539	386 PROSPECT STREET	APARTMENT
512	OPEN	ESPLANADE APTS C1-C8	[]	6511	CEN	-72.924363	"PROSPECT ST, 386"	[]	"PROSPECT STREET, 386"	"NEW HAVEN, CT"	ESPLAPTC	41.322602	386 PROSPECT STREET	APARTMENT
513	OPEN	ESPLANADE APTS D1-D8	[]	6511	CEN	-72.92465	"PROSPECT ST, 386"	[]	"PROSPECT STREET, 386"	"NEW HAVEN, CT"	ESPLAPTD	41.322662	386 PROSPECT STREET	APARTMENT
514	OPEN	ESPLANADE APTS E1-E8	[]	6511	CEN	-72.924972	"PROSPECT ST, 386"	[]	"PROSPECT STREET, 386"	"NEW HAVEN, CT"	ESPLAPTE	41.322721	386 PROSPECT STREET	APARTMENT
515	OPEN	"MANSFIELD ST, 319"	[]	6511	CEN	[]	"MANSFIELD ST, 319"	[]	"MANSFIELD STREET, 319"	"NEW HAVEN, CT"	MANS319	[]	319 MANSFIELD STREET	RESIDENTIAL
520	OPEN	MARSH HALL	OTHNIEL MARSH HSE	6511	CEN	-72.923652	"PROSPECT ST, 360"	Othniel Marsh Hs	"PROSPECT STREET, 360"	"NEW HAVEN, CT"	MARSH	41.321252	360 PROSPECT STREET	ACADEMIC
525	OPEN	GREELEY MEM. LAB	[]	6511	CEN	-72.924477	"PROSPECT ST, 370"	[]	"PROSPECT STREET, 370"	"NEW HAVEN, CT"	GML	41.321936	370 PROSPECT STREET	ACADEMIC
530	OPEN	GREELEY GREENHOUSE	[]	6511	CEN	-72.924624	"PROSPECT ST, 370"	[]	"PROSPECT STREET, 370"	"NEW HAVEN, CT"	GML-GH	41.322377	370 PROSPECT STREET	ACADEMIC
533	OPEN	MARSH BOTANICAL GARDEN	[]	6511	CEN	-72.924546	"MANSFIELD ST, 265"	[]	"MANSFIELD STREET, 265"	"NEW HAVEN, CT"	MBGDN	41.321371	265 MANSFIELD STREET	ACADEMIC
535	OPEN	MBG GREENHOUSE 1	[]	6511	CEN	-72.925193	"MANSFIELD ST, 265"	[]	"MANSFIELD STREET, 265"	"NEW HAVEN, CT"	MBG1	41.321604	265 MANSFIELD STREET	ACADEMIC
536	OPEN	MBG GREENHOUSE 3	[]	6511	CEN	-72.925115	"MANSFIELD ST, 265"	[]	"MANSFIELD STREET, 265"	"NEW HAVEN, CT"	MBG3	41.321749	265 MANSFIELD STREET	ACADEMIC
537	OPEN	MBG GREENHOUSE 4	[]	6511	CEN	-72.925139	"MANSFIELD ST, 265"	[]	"MANSFIELD STREET, 265"	"NEW HAVEN, CT"	MBG4	41.321862	265 MANSFIELD STREET	ACADEMIC
540	OPEN	"MANSFIELD ST, 227"	[]	6511	CEN	-72.925665	"MANSFIELD ST, 227"	Cottage for Professor Marsh	"MANSFIELD STREET, 227"	"NEW HAVEN, CT"	MANS227	41.321489	227 MANSFIELD STREET	ACADEMIC
555	OPEN	"MANSFIELD ST, 279"	[]	6511	CEN	-72.925516	"MANSFIELD ST, 279"	[]	"MANSFIELD STREET, 279"	"NEW HAVEN, CT"	MANS279	41.322531	279 MANSFIELD STREET	ACADEMIC
560	OPEN	MARSH GARDEN GARAGE	[]	6511	CEN	-72.925102	"MANSFIELD ST, 271"	[]	"MANSFIELD STREET, 271"	"NEW HAVEN, CT"	MBGGAR	41.322517	271 MANSFIELD STREET	ACADEMIC
565	OPEN	LOT  17 -GREELEY EAST	[]	6511	CEN	-72.923727	"PROSPECT ST, 370"	[]	"PROSPECT STREET, 370"	"NEW HAVEN, CT"	LOT 17	41.322066	370 PROSPECT STREET	PARKING
640	OPEN	SCIENCE PARK GARAGE	[]	6511	CEN	-72.929293	"WINCHESTER AVE, 300"	[]	"WINCHESTER AVENUE, 300-324"	"NEW HAVEN, CT"	SCIPKG	41.32262	300-324 WINCHESTER AVENUE	PARKING
655	OPEN	"WINCHESTER AVE, 344"	[]	6511	CEN	-72.929401	"WINCHESTER AVE, 344"	[]	"WINCHESTER AVENUE, 344"	"NEW HAVEN, CT"	WINC344	41.324618	344 WINCHESTER AVENUE	ADMIN
656	OPEN	LOT 344-344 WINCHESTER	[]	6511	CEN	-72.928501	"WINCHESTER AVE, 344"	[]	"WINCHESTER AVENUE, 344"	"NEW HAVEN, CT"	LOT 344	41.324532	344 WINCHESTER AVENUE	PARKING
657	OPEN	LOT 344V-344 WINC VIS	[]	6511	CEN	[]	"WINCHESTER AVE, 344"	[]	"WINCHESTER AVENUE, 344"	"NEW HAVEN, CT"	LOT 344V	[]	344 WINCHESTER AVENUE	PARKING
700	OPEN	"MANSFIELD ST,  68"	[]	6511	CEN	-72.926062	"MANSFIELD ST,  68"	[]	"MANSFIELD STREET,  68"	"NEW HAVEN, CT"	MANS068	41.31688	68 MANSFIELD STREET	APARTMENT
745	OPEN	"WINCHESTER AVE, 182"	[]	6511	CEN	-72.928279	"WINCHESTER AVE, 182"	[]	"WINCHESTER AVENUE, 182"	"NEW HAVEN, CT"	WINC182	41.319485	182 WINCHESTER AVENUE	VACANT
748	OPEN	LOT K - 25 SCIPK SOUTH	[]	6511	CEN	-72.928737	"WINCHESTER AVE, 200"	[]	"WINCHESTER AVENUE, 200"	"NEW HAVEN, CT"	LOT K	41.320294	200 WINCHESTER AVENUE	PARKING
749	OPEN	LOT KV - 25 SCI PK S VIS	[]	6511	CEN	[]	"WINCHESTER AVE, 200"	[]	"WINCHESTER AVENUE, 200"	"NEW HAVEN, CT"	LOT KV	[]	200 WINCHESTER AVENUE	PARKING
750	OPEN	SCIENCE PARK BLDG 25	[]	6511	CEN	-72.929122	"MUNSON ST, 150"	[]	"MUNSON STREET, 150"	"NEW HAVEN, CT"	SCIPK25	41.321057	150 MUNSON STREET	ADMIN
800	OPEN	"PROSPECT ST,314"	ALEXANDER CATLIN TWINING HSE	6511	CEN	-72.923779	"PROSPECT ST, 314"	Alexander Catlin Twining Hs	"PROSPECT STREET, 314"	"NEW HAVEN, CT"	PROS314	41.32032	314 PROSPECT STREET	ACADEMIC
801	OPEN	LOT  63 -314 PROS NORTH	[]	6511	CEN	-72.92399	"HILLSIDE PL, 24"	[]	"HILLSIDE PLACE, 24"	"NEW HAVEN, CT"	LOT 63	41.320576	24 HILLSIDE PLACE	PARKING
805	OPEN	"PROSPECT ST,310"	JOHN SCHWAB HSE	6511	CEN	-72.923796	"PROSPECT ST, 310"	John Schwab Hs	"PROSPECT STREET, 310"	"NEW HAVEN, CT"	PROS310	41.320054	310 PROSPECT STREET	ACADEMIC
806	OPEN	"PROSPECT ST,300"	[]	6511	CEN	-72.92378	"PROSPECT ST, 300"	[]	"PROSPECT STREET, 300"	"NEW HAVEN, CT"	PROS300	41.319789	300 PROSPECT STREET	HOUSING
808	OPEN	"PROSPECT ST,300R"	[]	6511	CEN	-72.924078	"PROSPECT ST, 300R"	[]	"PROSPECT STREET, 300R"	"NEW HAVEN, CT"	PROS300R	41.319921	300R PROSPECT STREET	HOUSING
815	OPEN	"PROSPECT ST,276"	OLD YALE INFIRMERY	6511	CEN	-72.923977	"PROSPECT ST, 276"	Yale Infirmary	"PROSPECT STREET, 276"	"NEW HAVEN, CT"	PROS276	41.319153	276 PROSPECT STREET	DORMITORY
816	OPEN	LOT  20 - 276 PROSPECT	[]	6511	CEN	-72.923817	"PROSPECT ST, 276"	[]	"PROSPECT STREET, 276"	"NEW HAVEN, CT"	LOT 20	41.318933	276 PROSPECT STREET	PARKING
820	OPEN	"PROSPECT ST,254"	GEORGE W. CURTIS HSE	6511	CEN	-72.924044	"PROSPECT ST, 254"	George W. Curtis Hs	"PROSPECT STREET, 254"	"NEW HAVEN, CT"	PROS254	41.318746	254 PROSPECT STREET	DORMITORY
824	OPEN	"COMPTON ST, 23"	[]	6511	CEN	[]	"COMPTON ST, 23"	[]	"COMPTON STREET, 23"	"NEW HAVEN, CT"	COMP23	[]	23 COMPTON STREET	RESIDENTIAL
905	OPEN	"PROSPECT ST,238"	PROF. HERBERT A NEWTON HSE	6511	CEN	-72.924112	"PROSPECT ST, 238"	Prof Herbert Newton Hs	"PROSPECT STREET, 238"	"NEW HAVEN, CT"	PROS238	41.318312	238 PROSPECT STREET	ACADEMIC
910	OPEN	"PROSPECT ST,230"	LUZAN B. MORRIS HSE	6511	CEN	-72.924139	"PROSPECT ST, 230"	Luzan B. Morris Hs	"PROSPECT STREET, 230"	"NEW HAVEN, CT"	PROS230	41.318107	230 PROSPECT STREET	ACADEMIC
920	OPEN	"PROSPECT ST,204"	[]	6511	CEN	-72.924313	"PROSPECT ST, 204"	[]	"PROSPECT STREET, 204"	"NEW HAVEN, CT"	PROS204	41.31739	204 PROSPECT STREET	ACADEMIC
921	OPEN	"PROSPECT ST,202"	DR. THEODORE T. MUNGER HSE	6511	CEN	-72.924357	"PROSPECT ST, 202"	[]	"PROSPECT STREET, 202"	"NEW HAVEN, CT"	PROS202	41.317246	202 PROSPECT STREET	HOUSING
923	OPEN	LOT  26V - INGALLS EAST	[]	6511	CEN	-72.924607	"PROSPECT ST, 200"	[]	"PROSPECT STREET, 200"	"NEW HAVEN, CT"	LOT 26V	41.31649	200 PROSPECT STREET	PARKING
924	OPEN	PROSPECT-SACHEM GAR	SCIENCE HILL PARKING GARAGE - SHPG	6511	CEN	-72.92474	"PROSPECT ST, 200"	[]	"PROSPECT STREET, 200"	"NEW HAVEN, CT"	PSG	41.31791	200 PROSPECT STREET	PARKING
943	OPEN	LOT  19 - INGALLS WEST	[]	6511	CEN	-72.9255	"MANSFIELD ST, 65"	[]	"MANSFIELD STREET,  65"	"NEW HAVEN, CT"	LOT 19	41.316924	65 MANSFIELD STREET	PARKING
1001	OPEN	LOT  62 -301 PROS SOUTH	[]	6511	CEN	-72.922931	"EDWARDS ST, 390"	[]	"EDWARDS STREET, 390"	"NEW HAVEN, CT"	LOT 62	41.31976	390 EDWARDS STREET	PARKING
1006	OPEN	CHEMICAL SAFETY BLDG	[]	6511	CEN	-72.921959	"EDWARDS ST, 350"	[]	"EDWARDS STREET, 350"	"NEW HAVEN, CT"	CSB	41.318929	350 EDWARDS STREET	ACADEMIC
1007	OPEN	LOT  29 - 350 EDWARDS	[]	6511	CEN	-72.921559	"EDWARDS ST, 350"	[]	"EDWARDS STREET, 350"	"NEW HAVEN, CT"	LOT 29	41.319794	350 EDWARDS STREET	PARKING
1009	OPEN	LOT  29V-350 EDWARDS VS	[]	6511	CEN	-72.921738	"EDWARDS ST, 350"	[]	"EDWARDS STREET, 350"	"NEW HAVEN, CT"	LOT 29V	41.319788	350 EDWARDS STREET	PARKING
1010	OPEN	"EDWARDS ST, 340"	HENRY C. WHITE HOUSE	6511	CEN	-72.921298	"EDWARDS ST, 340"	Henry C. White Hs	"EDWARDS STREET, 340"	"NEW HAVEN, CT"	EDW340	41.319712	340 EDWARDS STREET	ACADEMIC
1015	OPEN	PIERSON-SAGE GARAGE	[]	6511	CEN	-72.920275	"WHITNEY AVE, 280"	[]	"WHITNEY AVENUE, 280"	"NEW HAVEN, CT"	PSPG	41.31943	280 WHITNEY AVENUE	PARKING
1018	OPEN	LOT  16 -BASS/WNSL EAST	[]	6511	CEN	-72.919985	"WHITNEY AVE, 260"	[]	"WHITNEY AVENUE, 260"	"NEW HAVEN, CT"	LOT 16	41.318581	260 WHITNEY AVENUE	PARKING
1019	OPEN	LOT  16V-BASS/WNSL EAST	[]	6511	CEN	-72.920134	"WHITNEY AVE, 260"	[]	"WHITNEY AVENUE, 260"	"NEW HAVEN, CT"	LOT 16V	41.318135	260 WHITNEY AVENUE	PARKING
1020	OPEN	WRIGHT LAB	WRIGHT NUCLEAR STRUCTURES LABORATORY	6511	CEN	-72.920686	"WHITNEY AVE, 272"	[]	"WHITNEY AVENUE, 272"	"NEW HAVEN, CT"	WL	41.318961	272 WHITNEY AVENUE	ACADEMIC
1021	OPEN	LOT  22V - V-GIBBS EAST	[]	6511	CEN	-72.920833	"WHITNEY AVE, 260"	[]	"WHITNEY AVENUE, 260"	"NEW HAVEN, CT"	LOT 22V	41.317004	260 WHITNEY AVENUE	PARKING
1022	OPEN	LOT  22 -GIBBSLAB EAST	[]	6511	CEN	-72.92063	"WHITNEY AVE, 260"	[]	"WHITNEY AVENUE, 260"	"NEW HAVEN, CT"	LOT 22	41.317491	260 WHITNEY AVENUE	PARKING
1023	OPEN	WRIGHT LAB - CONNECTOR	ELECTRON ACCELERATOR LABORATORIES	6511	CEN	-72.921166	"WHITNEY AVE, 270"	[]	"WHITNEY AVENUE, 270"	"NEW HAVEN, CT"	WL-C	41.319079	270 WHITNEY AVENUE	ACADEMIC
1025	OPEN	WRIGHT LAB - WEST	"WRIGHT NUCLEAR STRUCTURES LABORATORY, WEST"	6511	CEN	-72.921449	"WHITNEY AVE, 268"	[]	"WHITNEY AVENUE, 268"	"NEW HAVEN, CT"	WL-W	41.318459	268 WHITNEY AVENUE	ACADEMIC
1030	OPEN	BASS CENTER	[]	6511	CEN	-72.921837	"WHITNEY AVE, 266"	[]	"WHITNEY AVENUE, 266"	"NEW HAVEN, CT"	BASS	41.318122	266 WHITNEY AVENUE	ACADEMIC
1033	OPEN	YALE BIOLOGY BUILDING	[]	6511	CEN	-72.920853	"WHITNEY AVE, 230"	[]	"WHITNEY AVENUE, 230"	"NEW HAVEN, CT"	YBB	41.317201	230 WHITNEY AVENUE	ACADEMIC
1036	OPEN	YALE SCIENCE BUILDING	[]	6511	CEN	[]	"WHITNEY AVE, 260"	[]	"WHITNEY AVENUE, 260"	"NEW HAVEN, CT"	YSB	[]	260 WHITNEY AVENUE	ACADEMIC
1057	OPEN	SCI HL SW SERVICE NODE	[]	6511	CEN	-72.92314	"SACHEM ST, 41"	[]	"SACHEM STREET, 41"	"NEW HAVEN, CT"	SHSWSN	41.316503	41 SACHEM STREET	OPERATIONS
1067	OPEN	KROON HALL	[]	6511	CEN	-72.92342	"PROSPECT ST, 195"	[]	"PROSPECT STREET, 195"	"NEW HAVEN, CT"	KRN	41.316783	195 PROSPECT STREET	ACADEMIC
1073	OPEN	LOT  21 -SAGE HALL EAST	[]	6511	CEN	-72.923195	"PROSPECT ST, 209"	[]	"PROSPECT STREET, 209"	"NEW HAVEN, CT"	LOT 21	41.317168	209 PROSPECT STREET	PARKING
1093	OPEN	CHEMISTRY RES BLDG	[]	6511	CEN	-72.922661	"PROSPECT ST, 275"	[]	"PROSPECT STREET, 275"	"NEW HAVEN, CT"	CRB	41.319259	275 PROSPECT STREET	ACADEMIC
1099	OPEN	SCIENCE HILL LAND	[]	6511	CEN	-72.921973	[]	[]	SCIENCE HILL LAND	"NEW HAVEN, CT"	SCIHLL	41.317856	[]	VACANT
1104	OPEN	GROUNDS MAINT GARAGE 1	[]	6511	CEN	-72.922092	"SACHEM ST, 40"	[]	"SACHEM STREET, 40"	"NEW HAVEN, CT"	GMG1	41.315558	40 SACHEM STREET	OPERATIONS